{"type": "FeatureCollection", "features": [{"type": "Feature", "properties": {"name": "Werkgebied", "plaatsen": ["Dongen", "Loon op Zand", "Waalwijk", "Kaatsheuvel", "De Moer", "Sprang-Capelle"], "source": "OpenStreetMap/Nominatim (samengevoegd)"}, "geometry": {"type": "Polygon", "coordinates": [[[5.0411551, 51.6062313], [5.0407518, 51.6062742], [5.0399251, 51.6063621], [5.0396834, 51.6063715], [5.0375881, 51.6064525], [5.037491, 51.6064563], [5.0373678, 51.6064608], [5.0341561, 51.6065972], [5.0323255, 51.6066749], [5.0318894, 51.6067011], [5.031202, 51.6067118], [5.0300439, 51.6068077], [5.0298462, 51.6068196], [5.0291572, 51.606857], [5.0286266, 51.6068252], [5.0279247, 51.6068397], [5.0263113, 51.6068981], [5.0256147, 51.6069234], [5.0245439, 51.6069622], [5.0244795, 51.6069645], [5.0241933, 51.6069748], [5.0225721, 51.6069825], [5.0220307, 51.606969], [5.021431, 51.606954], [5.0194675, 51.6071369], [5.0189955, 51.6071809], [5.0183067, 51.6072745], [5.0182377, 51.6072839], [5.0180403, 51.6073107], [5.0172328, 51.6074205], [5.0156017, 51.6074478], [5.0134096, 51.6075227], [5.0118699, 51.6075856], [5.0118626, 51.6075859], [5.0072794, 51.6077729], [5.0054952, 51.6078458], [5.0045136, 51.6078859], [5.0044921, 51.6078868], [5.0044966, 51.607542], [5.004272, 51.6071836], [5.0042153, 51.6070931], [5.0037374, 51.6072092], [5.0038186, 51.6073438], [5.0039471, 51.6075571], [5.0034145, 51.60761], [5.0027232, 51.6076245], [5.0014363, 51.6076514], [5.0006194, 51.6077011], [4.9995678, 51.607765], [4.9994472, 51.6077723], [4.9987267, 51.6078161], [4.9980584, 51.6078194], [4.997432, 51.6078225], [4.9969648, 51.6078248], [4.9969234, 51.607825], [4.9969237, 51.6078477], [4.9968491, 51.6078485], [4.996283, 51.6078547], [4.99373, 51.6078879], [4.9908861, 51.6079247], [4.9905417, 51.6080089], [4.9886864, 51.6080327], [4.9886765, 51.608023], [4.9886262, 51.6079739], [4.9885485, 51.607898], [4.9880638, 51.6079005], [4.9863152, 51.6079094], [4.9863243, 51.6078706], [4.9862987, 51.607868], [4.9857605, 51.6078145], [4.9857572, 51.6078326], [4.9857421, 51.6078315], [4.9855352, 51.6078167], [4.98451, 51.6076331], [4.9835137, 51.6073641], [4.9829934, 51.6081113], [4.9829292, 51.6082035], [4.9828875, 51.6082634], [4.9828482, 51.6082933], [4.9827449, 51.6083721], [4.9823599, 51.6086656], [4.981856, 51.6087516], [4.9806282, 51.6089612], [4.9805776, 51.6089605], [4.9803938, 51.6089581], [4.978877, 51.6089377], [4.9785648, 51.6089335], [4.978562, 51.6090144], [4.97837, 51.6090162], [4.9781952, 51.6090217], [4.9780212, 51.6090332], [4.9778414, 51.6090497], [4.9775536, 51.6090906], [4.9773321, 51.6091352], [4.9770339, 51.6092124], [4.9768401, 51.6092618], [4.9767944, 51.6092734], [4.9760789, 51.6094832], [4.974687, 51.6098887], [4.9728958, 51.6104123], [4.9725817, 51.6105042], [4.972101, 51.6106455], [4.9712684, 51.6108904], [4.9708466, 51.6110185], [4.9703227, 51.6111866], [4.9690556, 51.6116884], [4.9685223, 51.6118996], [4.9684618, 51.6119236], [4.9670578, 51.6123732], [4.9665553, 51.6125325], [4.9651957, 51.6129771], [4.9647759, 51.613114], [4.9647134, 51.6131339], [4.9644332, 51.6131999], [4.9644208, 51.6131987], [4.9643076, 51.6131877], [4.9642752, 51.6131849], [4.9639193, 51.6132237], [4.9637916, 51.6132232], [4.9636535, 51.6132005], [4.9635984, 51.613191], [4.9634118, 51.6131589], [4.9632873, 51.6131354], [4.963256, 51.6131295], [4.9631234, 51.6131132], [4.9629903, 51.6131045], [4.9628562, 51.6131021], [4.9626969, 51.6130974], [4.9626028, 51.6131022], [4.9623876, 51.6131552], [4.9623721, 51.6131591], [4.9622821, 51.6131818], [4.9621046, 51.6132325], [4.9620732, 51.6132427], [4.9619532, 51.6132819], [4.9617176, 51.6133558], [4.9615674, 51.6134029], [4.96115, 51.6134444], [4.9607816, 51.6134866], [4.9605209, 51.6135354], [4.9604653, 51.6135459], [4.9601565, 51.6136027], [4.9596398, 51.6137022], [4.9594404, 51.6137304], [4.959319, 51.613734], [4.9593145, 51.6137341], [4.9592191, 51.6137369], [4.9587472, 51.6137473], [4.9584907, 51.6137488], [4.9584606, 51.613749], [4.9584373, 51.6137491], [4.9578621, 51.6137585], [4.9574163, 51.6138562], [4.9573457, 51.6138695], [4.9567511, 51.614004], [4.9567123, 51.6140128], [4.9563562, 51.6140933], [4.9562027, 51.6141548], [4.9561945, 51.6141636], [4.9561174, 51.6142466], [4.9555116, 51.6144034], [4.9551545, 51.6145029], [4.9549534, 51.614536], [4.9548395, 51.6145728], [4.9544621, 51.6146862], [4.9540583, 51.6146978], [4.9539268, 51.6147016], [4.9531899, 51.6147231], [4.9529312, 51.6147232], [4.9529164, 51.6147001], [4.9527309, 51.6144127], [4.9527778, 51.6143469], [4.9527993, 51.6142864], [4.9527698, 51.6142623], [4.9525962, 51.614204], [4.9524994, 51.6141736], [4.9524494, 51.6141551], [4.9523897, 51.6141328], [4.9523321, 51.6141108], [4.9522769, 51.6140879], [4.9522426, 51.6140731], [4.9521999, 51.614055], [4.9521552, 51.6140357], [4.9520969, 51.6140096], [4.9520189, 51.6139713], [4.9519985, 51.6139619], [4.9519676, 51.6139452], [4.9519398, 51.6139317], [4.9519059, 51.613913], [4.9518695, 51.6138899], [4.9518194, 51.6138608], [4.9517024, 51.6137853], [4.9516577, 51.6137546], [4.9516222, 51.6137307], [4.9515847, 51.6137021], [4.9514665, 51.6136132], [4.9514277, 51.6135824], [4.951391, 51.6135519], [4.9513492, 51.6135164], [4.9513039, 51.6134763], [4.9512714, 51.6134458], [4.950839, 51.613019], [4.9508131, 51.6129934], [4.9507813, 51.6130046], [4.9507728, 51.6130076], [4.9506469, 51.612829], [4.9506086, 51.6127747], [4.9504395, 51.6125958], [4.9502834, 51.6124307], [4.9502656, 51.6124119], [4.950098, 51.6122345], [4.9500945, 51.6122308], [4.9500643, 51.6121989], [4.9499351, 51.6120621], [4.9498521, 51.6119727], [4.9494564, 51.611713], [4.9489414, 51.6114499], [4.948933, 51.6114473], [4.9482895, 51.611248], [4.9479162, 51.6111828], [4.947846, 51.6111706], [4.9478464, 51.6111703], [4.9477892, 51.6111588], [4.9476126, 51.6111233], [4.9472709, 51.6111061], [4.946572, 51.6110995], [4.9458481, 51.6111525], [4.9452882, 51.6112453], [4.9444202, 51.6113894], [4.9439451, 51.6114706], [4.9439063, 51.6113129], [4.9438794, 51.6112034], [4.9437168, 51.6105414], [4.943591, 51.6100292], [4.9415043, 51.6101369], [4.940312, 51.6101984], [4.9396627, 51.6103782], [4.939037, 51.6105514], [4.9378275, 51.6108862], [4.9378167, 51.6108881], [4.9370406, 51.6110211], [4.9373144, 51.6113966], [4.9367634, 51.6114908], [4.9365427, 51.6115288], [4.9355466, 51.6117006], [4.9353319, 51.6117374], [4.9333504, 51.6120776], [4.9327074, 51.6121854], [4.9325419, 51.6122121], [4.9324881, 51.6122214], [4.9323642, 51.6122428], [4.9323273, 51.6122492], [4.932152, 51.6122795], [4.9315474, 51.612384], [4.9308283, 51.6125086], [4.9304937, 51.612566], [4.9295804, 51.6127227], [4.9290298, 51.6128177], [4.9281271, 51.6129735], [4.9278349, 51.6129817], [4.9275192, 51.6130213], [4.9272398, 51.6130703], [4.9269788, 51.6131129], [4.9268589, 51.6131383], [4.9266651, 51.6131794], [4.9264377, 51.6132342], [4.9262855, 51.6132785], [4.9257526, 51.6134328], [4.9255165, 51.6134971], [4.9251831, 51.6135888], [4.9249621, 51.6136495], [4.9244361, 51.6138598], [4.9239811, 51.6140318], [4.9237653, 51.6141114], [4.9235474, 51.6141918], [4.9228138, 51.6144599], [4.922742, 51.6144862], [4.9224499, 51.6145929], [4.9214758, 51.6149493], [4.9213229, 51.6150053], [4.9203929, 51.6153479], [4.9196976, 51.6156019], [4.9192281, 51.6157734], [4.9188019, 51.6159308], [4.9181203, 51.6162745], [4.9180807, 51.6162945], [4.9134125, 51.6156203], [4.9123115, 51.6154611], [4.9120729, 51.6154268], [4.9120191, 51.615419], [4.9119632, 51.615411], [4.9118817, 51.6153993], [4.9118476, 51.6154396], [4.9116141, 51.6157127], [4.9116187, 51.6157135], [4.9116179, 51.6157149], [4.911605, 51.6157293], [4.9115238, 51.6157122], [4.9113465, 51.615693], [4.9113317, 51.6157267], [4.9113233, 51.6157498], [4.9112934, 51.6158246], [4.9112608, 51.6159045], [4.91123, 51.6159874], [4.9111972, 51.6160789], [4.9111674, 51.6161566], [4.9111531, 51.616228], [4.9111349, 51.6163242], [4.9111216, 51.6163921], [4.9111107, 51.6164941], [4.9111066, 51.6165466], [4.9111014, 51.6166181], [4.9111016, 51.6167005], [4.9111039, 51.6168637], [4.9111168, 51.6169642], [4.9111316, 51.6170484], [4.9111482, 51.6171287], [4.9111752, 51.6172044], [4.9111359, 51.6175547], [4.9112788, 51.6175491], [4.911319, 51.6179318], [4.9113268, 51.6180618], [4.910707, 51.6181753], [4.9104011, 51.6182313], [4.9098997, 51.6183271], [4.9107009, 51.6187623], [4.91078, 51.6188053], [4.9109473, 51.6188857], [4.9113677, 51.6190684], [4.911479, 51.6191009], [4.9116269, 51.6191581], [4.9118125, 51.6192372], [4.9119993, 51.6193276], [4.9121179, 51.619391], [4.9121378, 51.6194061], [4.9122283, 51.6194755], [4.9122316, 51.6194798], [4.9124669, 51.6195569], [4.9128276, 51.619622], [4.9134611, 51.6196376], [4.9135589, 51.6196377], [4.9140011, 51.619973], [4.9143865, 51.6203169], [4.9144607, 51.6203963], [4.9146437, 51.6205738], [4.9148047, 51.6207948], [4.9149322, 51.6209976], [4.9150343, 51.6211719], [4.9152631, 51.6216951], [4.915269, 51.6217088], [4.9152973, 51.6217746], [4.9153623, 51.621926], [4.9153625, 51.6219264], [4.9154283, 51.6220856], [4.9155483, 51.6224158], [4.9155545, 51.6224329], [4.9155163, 51.622439], [4.9153489, 51.6224662], [4.9150662, 51.6225141], [4.914246, 51.6226507], [4.9138836, 51.622711], [4.9123755, 51.622962], [4.9111205, 51.6231709], [4.9111448, 51.6231863], [4.9106535, 51.6232681], [4.9101009, 51.6233601], [4.9101155, 51.6233706], [4.9088842, 51.6235757], [4.9088422, 51.6235827], [4.9071901, 51.6238578], [4.9071307, 51.6238677], [4.9070583, 51.6238797], [4.906974, 51.6238938], [4.9044393, 51.6243065], [4.9042793, 51.6243326], [4.9043095, 51.6243407], [4.9043283, 51.6243458], [4.9044432, 51.6243768], [4.905551, 51.6246761], [4.9055838, 51.624685], [4.9056897, 51.6247136], [4.9062079, 51.6248535], [4.9066248, 51.6249661], [4.9090067, 51.6256075], [4.9105473, 51.6260372], [4.9112349, 51.6262591], [4.9118226, 51.6263649], [4.9118629, 51.6264279], [4.9120754, 51.6267599], [4.9121174, 51.6268255], [4.9112777, 51.6270874], [4.9110357, 51.6271759], [4.9107945, 51.6272583], [4.910679, 51.6273133], [4.9106025, 51.6273594], [4.9105378, 51.6274259], [4.910519, 51.627464], [4.9105011, 51.627492], [4.9104518, 51.6276147], [4.9104279, 51.6276677], [4.9104064, 51.6277515], [4.91034, 51.6280224], [4.9100583, 51.6293155], [4.9100444, 51.6293792], [4.9100282, 51.6294601], [4.9100351, 51.6295136], [4.9100575, 51.6295641], [4.9101361, 51.6296989], [4.9105433, 51.6302889], [4.910757, 51.6305903], [4.9109374, 51.6308478], [4.9109908, 51.6309476], [4.9110634, 51.6311305], [4.9110716, 51.6311416], [4.9112632, 51.6314102], [4.9117845, 51.6321413], [4.9122293, 51.6327695], [4.9126134, 51.6333107], [4.9128624, 51.6336831], [4.9131918, 51.6340228], [4.9137123, 51.6344598], [4.9141101, 51.6347872], [4.9141122, 51.6347889], [4.9142954, 51.6349452], [4.914917, 51.6354161], [4.9154792, 51.6358357], [4.9161033, 51.6363251], [4.9170323, 51.6370621], [4.9171064, 51.637122], [4.9181489, 51.6379701], [4.9187552, 51.6384546], [4.9198486, 51.6393431], [4.9206412, 51.6399857], [4.9214503, 51.6406338], [4.9220333, 51.6411046], [4.9222569, 51.6412814], [4.9228393, 51.6417359], [4.9235205, 51.6422778], [4.9239175, 51.6425967], [4.9240014, 51.6426658], [4.9245462, 51.6431325], [4.925106, 51.6436161], [4.9259254, 51.6442762], [4.9267706, 51.6449592], [4.9269616, 51.6451136], [4.9292028, 51.6468745], [4.9292045, 51.6469079], [4.9292486, 51.6472171], [4.9292375, 51.6475642], [4.929278, 51.6479601], [4.9292823, 51.6482061], [4.9292803, 51.6485323], [4.9293792, 51.6484594], [4.9300107, 51.6479914], [4.9301022, 51.6479414], [4.930106, 51.6479548], [4.9301621, 51.6481529], [4.9302012, 51.6483193], [4.9302185, 51.6484439], [4.9302324, 51.6485743], [4.930232, 51.6487611], [4.9302346, 51.6489448], [4.9302344, 51.6491375], [4.9302444, 51.6492108], [4.9302542, 51.6492734], [4.9302768, 51.6493665], [4.9303036, 51.6494461], [4.9303358, 51.649509], [4.9303544, 51.6495414], [4.9303809, 51.649562], [4.9304317, 51.6495757], [4.9305126, 51.6496105], [4.9305956, 51.649644], [4.9306808, 51.6496797], [4.9307144, 51.6497007], [4.9307496, 51.6497258], [4.9308289, 51.6498006], [4.9309222, 51.6498858], [4.9309902, 51.649931], [4.9310733, 51.6499766], [4.9311663, 51.6500036], [4.9313108, 51.6500386], [4.9314444, 51.6500749], [4.9316325, 51.65013], [4.9317606, 51.6501767], [4.9318778, 51.6502262], [4.9319973, 51.6502865], [4.9320775, 51.650328], [4.9321526, 51.6503687], [4.9323208, 51.6504373], [4.9324911, 51.6505077], [4.9325748, 51.6505416], [4.93266, 51.650579], [4.9327448, 51.6506179], [4.932782, 51.6506452], [4.9328158, 51.6506977], [4.9328226, 51.6506154], [4.9328259, 51.6505866], [4.9328353, 51.6505453], [4.9328419, 51.6504958], [4.9328536, 51.6504339], [4.9328889, 51.6503836], [4.93292, 51.6503607], [4.9330418, 51.6502675], [4.9330823, 51.6502413], [4.9331874, 51.6501781], [4.9332911, 51.6501178], [4.9333363, 51.6500875], [4.933377, 51.6500512], [4.9334486, 51.6499757], [4.9335089, 51.6499149], [4.9335515, 51.6498698], [4.933584, 51.6498413], [4.9336231, 51.6498075], [4.9337324, 51.649685], [4.9337809, 51.6496397], [4.9339114, 51.6495624], [4.9339683, 51.6495372], [4.9340753, 51.6494943], [4.9344006, 51.649379], [4.934536, 51.6493299], [4.9348005, 51.649196], [4.9349405, 51.6491236], [4.9351401, 51.6491407], [4.9357173, 51.6491874], [4.9357757, 51.6491922], [4.9364894, 51.6492453], [4.9366522, 51.6492605], [4.9379046, 51.6493678], [4.9388346, 51.6494503], [4.9392764, 51.6494903], [4.9399685, 51.6495529], [4.9409249, 51.6496365], [4.9411674, 51.649658], [4.9418667, 51.6497005], [4.9419223, 51.6497274], [4.9420152, 51.6497768], [4.9420498, 51.6497808], [4.94236, 51.6498181], [4.9426295, 51.6498447], [4.9428076, 51.6498433], [4.9435512, 51.6499199], [4.9437281, 51.6499407], [4.9438769, 51.6499508], [4.9440931, 51.6498738], [4.9443225, 51.6498702], [4.9445233, 51.6498875], [4.9446604, 51.6499439], [4.9447999, 51.6500505], [4.9448685, 51.6500648], [4.9455246, 51.6501368], [4.9466132, 51.6502573], [4.9477166, 51.6503786], [4.9488363, 51.6504973], [4.9500759, 51.6506302], [4.9508343, 51.6507096], [4.9509535, 51.6507317], [4.9511153, 51.6507536], [4.9524737, 51.6509196], [4.9534372, 51.6510268], [4.9536411, 51.6510495], [4.9543262, 51.6511224], [4.9551523, 51.6512124], [4.9561878, 51.6513332], [4.9563296, 51.6513487], [4.956358, 51.6513528], [4.9566476, 51.6513794], [4.9567729, 51.6513837], [4.9568998, 51.6513941], [4.9569663, 51.6514032], [4.9570038, 51.6514084], [4.9578801, 51.6515296], [4.9578968, 51.6515319], [4.9579196, 51.651535], [4.9584171, 51.6515968], [4.9586714, 51.6516295], [4.9590007, 51.651663], [4.9597451, 51.6517403], [4.9599872, 51.6517665], [4.9607842, 51.6518515], [4.9619641, 51.6519746], [4.9629871, 51.6520771], [4.9630612, 51.6520845], [4.9652283, 51.6523264], [4.9667669, 51.6525021], [4.9673854, 51.6525644], [4.9677008, 51.6525991], [4.9681458, 51.6526481], [4.9691647, 51.6527601], [4.9731652, 51.6531995], [4.9756375, 51.6534541], [4.9756658, 51.6534571], [4.9763554, 51.6535278], [4.976542, 51.6535481], [4.9765438, 51.6535483], [4.976607, 51.6535547], [4.9766024, 51.6535711], [4.9783256, 51.6537368], [4.9783284, 51.6537269], [4.9788733, 51.6537767], [4.9788864, 51.6544534], [4.9788864, 51.6544574], [4.9789111, 51.6557394], [4.9789113, 51.6557489], [4.9789162, 51.6558269], [4.9789519, 51.6575723], [4.9789531, 51.6576767], [4.9789886, 51.6593466], [4.9782963, 51.6593611], [4.9775686, 51.6593679], [4.9757921, 51.6593415], [4.9757212, 51.6593413], [4.9755327, 51.6593339], [4.9754027, 51.6593318], [4.9751043, 51.6593467], [4.9749699, 51.6593823], [4.9748629, 51.6594508], [4.9748082, 51.6595814], [4.9748178, 51.6599705], [4.9748216, 51.6600927], [4.9748386, 51.6606425], [4.9747958, 51.6615907], [4.9747929, 51.6616336], [4.9747771, 51.6617522], [4.9747057, 51.6622804], [4.9744908, 51.6629835], [4.9740501, 51.6640479], [4.9740176, 51.6651208], [4.9740174, 51.6651892], [4.9729911, 51.665984], [4.9729829, 51.666107], [4.9729594, 51.6663219], [4.9729267, 51.6663217], [4.9729105, 51.6664887], [4.9728764, 51.6665073], [4.9728529, 51.6669092], [4.9728048, 51.6677583], [4.9728041, 51.6677715], [4.9728209, 51.6678485], [4.9728318, 51.6679849], [4.9727824, 51.6687351], [4.9727439, 51.668734], [4.9727242, 51.6690739], [4.972692, 51.6696287], [4.9726904, 51.6696574], [4.9726728, 51.6699408], [4.9726409, 51.6704658], [4.9726009, 51.6712194], [4.972594, 51.6713717], [4.9725277, 51.6720292], [4.9725101, 51.6720853], [4.9724844, 51.6723545], [4.9722905, 51.6723458], [4.9721566, 51.6737301], [4.971697, 51.6736156], [4.9715655, 51.6740279], [4.971494, 51.6742522], [4.9712507, 51.6750222], [4.9711879, 51.6752172], [4.9711206, 51.6754309], [4.9710983, 51.6754954], [4.9708406, 51.6756724], [4.9702794, 51.676058], [4.9692974, 51.6767208], [4.9686564, 51.6771551], [4.9684036, 51.6773198], [4.9682941, 51.6773943], [4.9680185, 51.6775875], [4.9674717, 51.6779523], [4.9673484, 51.6780434], [4.9664032, 51.6787414], [4.9662591, 51.6788241], [4.9649033, 51.6795989], [4.9648983, 51.6796544], [4.9648858, 51.6797912], [4.964876, 51.6798988], [4.9648808, 51.6799159], [4.9649044, 51.6799999], [4.9648635, 51.6804401], [4.9648592, 51.6804959], [4.9648531, 51.6805767], [4.9648024, 51.6807937], [4.9647886, 51.680889], [4.9647797, 51.6809499], [4.9647487, 51.6811833], [4.9647468, 51.6812154], [4.9647221, 51.6816273], [4.9647395, 51.6816275], [4.9647273, 51.6818363], [4.9647257, 51.681863], [4.9647089, 51.6821919], [4.9646812, 51.6825688], [4.9646714, 51.6827023], [4.9646576, 51.6828532], [4.9646597, 51.682963], [4.9646615, 51.6831663], [4.9646295, 51.6836857], [4.9646246, 51.6841732], [4.9646081, 51.6843626], [4.9645819, 51.6846655], [4.9645693, 51.6848309], [4.9645525, 51.6850952], [4.9645508, 51.6851834], [4.96455, 51.6852248], [4.9645466, 51.6854444], [4.9645265, 51.6857177], [4.9645147, 51.6859036], [4.9645099, 51.6859785], [4.9644998, 51.6860827], [4.9644627, 51.686417], [4.9644605, 51.6866096], [4.9644556, 51.6870037], [4.964473, 51.687004], [4.964472, 51.6870216], [4.9644608, 51.6872271], [4.9644537, 51.687367], [4.9644446, 51.6875454], [4.9644391, 51.6876786], [4.9644381, 51.6876901], [4.9644267, 51.6878208], [4.9644224, 51.6878709], [4.9644025, 51.6880704], [4.9643982, 51.6881148], [4.9652019, 51.6881735], [4.9665342, 51.6882737], [4.9665747, 51.6882756], [4.9665613, 51.6884698], [4.9665526, 51.6886154], [4.9665507, 51.688646], [4.9665492, 51.6886712], [4.9665484, 51.6887852], [4.9665182, 51.6893744], [4.9665095, 51.6895444], [4.9664827, 51.6900687], [4.9664316, 51.6903536], [4.9664486, 51.6905131], [4.9664559, 51.6905818], [4.9664489, 51.6906346], [4.9664471, 51.6907166], [4.9664462, 51.690749], [4.9664013, 51.6915229], [4.9663873, 51.691763], [4.9663375, 51.6925774], [4.9662803, 51.6935768], [4.9662553, 51.6939807], [4.966251, 51.6940495], [4.9662345, 51.6943548], [4.9673851, 51.6944548], [4.9677584, 51.6944843], [4.9682284, 51.6945215], [4.9688852, 51.6945967], [4.9699245, 51.6946839], [4.97107, 51.6947705], [4.9713903, 51.6947974], [4.9713861, 51.6948785], [4.9713664, 51.6952554], [4.9713508, 51.6955356], [4.9713213, 51.6960347], [4.9712996, 51.6964034], [4.9712646, 51.697043], [4.9712494, 51.6973107], [4.9711884, 51.6983941], [4.9711781, 51.6985557], [4.9711329, 51.6993553], [4.9710949, 51.7000614], [4.9710573, 51.7006937], [4.9710241, 51.7012938], [4.9710071, 51.7016658], [4.9709853, 51.7020808], [4.9709304, 51.7030901], [4.9709079, 51.7035197], [4.9708852, 51.7039567], [4.9708685, 51.7042734], [4.9708436, 51.7046513], [4.9708254, 51.7050215], [4.9708249, 51.7050322], [4.9707892, 51.7056626], [4.9707365, 51.7065931], [4.9706576, 51.7079958], [4.9706499, 51.7081128], [4.9706402, 51.7083463], [4.9706015, 51.7091348], [4.9706, 51.7093119], [4.9705991, 51.7094187], [4.9705983, 51.7094326], [4.970538, 51.7105205], [4.9704647, 51.7118632], [4.9704007, 51.7130764], [4.9703595, 51.7140085], [4.9703572, 51.7140588], [4.9703003, 51.715113], [4.9702998, 51.7151202], [4.9702506, 51.7159283], [4.9702502, 51.7159354], [4.970216, 51.7165599], [4.9702034, 51.7167895], [4.9701848, 51.7171646], [4.9701846, 51.7171698], [4.9701835, 51.717216], [4.9701674, 51.7178511], [4.9701299, 51.7185703], [4.9700714, 51.7195266], [4.9700699, 51.7196094], [4.9700436, 51.7200696], [4.9700167, 51.7205046], [4.9699868, 51.7210997], [4.9713376, 51.7208551], [4.9749235, 51.7201641], [4.9784183, 51.7194103], [4.9794716, 51.7191802], [4.9817109, 51.7186237], [4.9820065, 51.718549], [4.9821978, 51.7185008], [4.9831044, 51.7182661], [4.9841563, 51.7179958], [4.9851708, 51.7177367], [4.9863376, 51.7174364], [4.9866823, 51.717346], [4.9886369, 51.7168714], [4.9899583, 51.7165504], [4.9911768, 51.716254], [4.9940799, 51.7155798], [4.9969519, 51.7149591], [5.0004509, 51.7142865], [5.0014334, 51.7141149], [5.0025285, 51.7139236], [5.0035163, 51.7137512], [5.0049034, 51.7135057], [5.0057834, 51.7133497], [5.0058645, 51.7133355], [5.0060165, 51.7133089], [5.0077364, 51.7130547], [5.0092589, 51.7128444], [5.0094524, 51.7128194], [5.0107232, 51.7126552], [5.0109986, 51.7126225], [5.0124351, 51.7124519], [5.0148228, 51.7121678], [5.0162209, 51.7120133], [5.0183267, 51.7117942], [5.0197941, 51.7116598], [5.021247, 51.7115271], [5.0242565, 51.7112946], [5.0264075, 51.7111493], [5.0270894, 51.7110996], [5.0274455, 51.7110736], [5.0276543, 51.7110613], [5.0287705, 51.7110006], [5.029588, 51.7109603], [5.0303877, 51.7109342], [5.0327925, 51.7108631], [5.0341681, 51.7108427], [5.0359059, 51.7108134], [5.0384737, 51.7108175], [5.0399511, 51.7108468], [5.0417607, 51.7108827], [5.0447048, 51.7109851], [5.0449881, 51.710997], [5.0464385, 51.7110871], [5.0472877, 51.7111496], [5.0489765, 51.7113069], [5.0501306, 51.711407], [5.0510013, 51.7115061], [5.0523514, 51.7116615], [5.0529406, 51.7117359], [5.0536298, 51.7118178], [5.0542116, 51.7119007], [5.0542318, 51.7119036], [5.05428, 51.7119146], [5.0545849, 51.7119765], [5.05543, 51.712147], [5.0567237, 51.712419], [5.0575542, 51.7125953], [5.0578735, 51.7126636], [5.0593911, 51.7130149], [5.0600392, 51.7131686], [5.0614161, 51.713553], [5.0624566, 51.7138429], [5.0632279, 51.7140858], [5.0639141, 51.7143039], [5.0645115, 51.7144937], [5.0656443, 51.7148879], [5.0669447, 51.7153927], [5.0679024, 51.7157631], [5.0688513, 51.7161743], [5.0692841, 51.7163619], [5.0710043, 51.7171107], [5.0716802, 51.7173963], [5.0730057, 51.717986], [5.0750583, 51.7188771], [5.0763166, 51.7195485], [5.0769499, 51.719863], [5.077598, 51.7201851], [5.0785484, 51.7206714], [5.080013, 51.7214384], [5.0806551, 51.7217829], [5.0808175, 51.7218707], [5.0808462, 51.7218862], [5.0815822, 51.7222341], [5.0817395, 51.722333], [5.0817602, 51.7223444], [5.0825014, 51.721747], [5.0826828, 51.7216007], [5.0829468, 51.7213846], [5.0829723, 51.7213637], [5.0832777, 51.7211137], [5.0833416, 51.7210614], [5.0834427, 51.7209786], [5.0835398, 51.7209065], [5.0838936, 51.720914], [5.0840824, 51.720918], [5.0846179, 51.7208187], [5.084888, 51.7207681], [5.0851661, 51.7207161], [5.0859422, 51.720469], [5.0859498, 51.7204666], [5.0872662, 51.7200485], [5.0882801, 51.7197245], [5.0882856, 51.7197228], [5.0894601, 51.7194985], [5.0896757, 51.7194573], [5.0902472, 51.7193471], [5.0904133, 51.719315], [5.0904657, 51.7193143], [5.0931571, 51.7192049], [5.0937472, 51.7186856], [5.093825, 51.7186153], [5.0939027, 51.7185449], [5.0939653, 51.7184777], [5.0940518, 51.7183775], [5.0941883, 51.7182933], [5.0943702, 51.7182541], [5.0944887, 51.7182515], [5.0950891, 51.718356], [5.0951079, 51.7183593], [5.0952216, 51.7183791], [5.0954806, 51.7183481], [5.0957491, 51.7182721], [5.0960048, 51.7180726], [5.096114, 51.7179867], [5.0965163, 51.7176488], [5.0967205, 51.7175447], [5.0971835, 51.7175563], [5.0973365, 51.717571], [5.0975412, 51.7175779], [5.0976103, 51.7175217], [5.0976596, 51.7174816], [5.0977846, 51.7173809], [5.0978116, 51.7173591], [5.0978125, 51.7173584], [5.0981082, 51.7171587], [5.0984191, 51.7169976], [5.0987785, 51.7167765], [5.0991141, 51.7166192], [5.0990976, 51.7165976], [5.0990948, 51.716594], [5.0988802, 51.7164597], [5.0988857, 51.7164516], [5.0991767, 51.7160386], [5.0993291, 51.7158997], [5.0994624, 51.7157782], [5.0996631, 51.7156293], [5.0998414, 51.7153693], [5.0999468, 51.7152304], [5.1000018, 51.7151583], [5.1000982, 51.7149873], [5.1001149, 51.7149576], [5.100213, 51.7147838], [5.1005464, 51.714504], [5.1006441, 51.7143994], [5.1006678, 51.714374], [5.100848, 51.7141812], [5.1011722, 51.713928], [5.1012327, 51.7138262], [5.1016014, 51.7132053], [5.1016909, 51.7131303], [5.1018849, 51.7129844], [5.1020158, 51.7129351], [5.1020368, 51.7129195], [5.1021628, 51.7128263], [5.1023316, 51.7128176], [5.1024356, 51.7127738], [5.1024395, 51.7127722], [5.1025355, 51.7127347], [5.1027269, 51.712687], [5.1030273, 51.7125516], [5.1039364, 51.7121416], [5.1040491, 51.7121005], [5.1041349, 51.7120499], [5.1042271, 51.7119464], [5.1043889, 51.7118465], [5.1045436, 51.7117566], [5.1048222, 51.7114608], [5.1050394, 51.7112301], [5.1051435, 51.7111333], [5.1054212, 51.710956], [5.1055971, 51.7109019], [5.1061811, 51.7107539], [5.1062598, 51.7107384], [5.1064701, 51.7107366], [5.1066356, 51.7107656], [5.1068547, 51.7108611], [5.1069069, 51.7108125], [5.1070308, 51.7106356], [5.1073575, 51.7103866], [5.1074739, 51.7103225], [5.1074604, 51.7102007], [5.1074219, 51.7101416], [5.1074679, 51.7099879], [5.1075491, 51.7099398], [5.1077281, 51.7099008], [5.1078059, 51.7098699], [5.1079295, 51.7097647], [5.1082008, 51.709563], [5.1085136, 51.7092408], [5.1087205, 51.7090327], [5.1089787, 51.7087306], [5.109129, 51.7085765], [5.1093733, 51.7082645], [5.1095429, 51.7080384], [5.109589, 51.7079365], [5.1095961, 51.7078139], [5.1096156, 51.7077804], [5.1099377, 51.7071431], [5.1100196, 51.7070203], [5.1100985, 51.7068864], [5.1101332, 51.706788], [5.1101116, 51.7065783], [5.1100257, 51.706446], [5.1100041, 51.7063601], [5.1100019, 51.7062343], [5.1100428, 51.7061784], [5.1100968, 51.7061254], [5.1101572, 51.7060661], [5.1103752, 51.7059061], [5.1104048, 51.7058616], [5.1104138, 51.7058481], [5.1104415, 51.7057729], [5.1104387, 51.7056067], [5.1104367, 51.7054514], [5.1104401, 51.7054344], [5.1104627, 51.7053235], [5.110565, 51.7051791], [5.1106788, 51.7049795], [5.1107054, 51.7048992], [5.1107057, 51.7048983], [5.1107342, 51.7048122], [5.1107726, 51.7047511], [5.1110274, 51.7043413], [5.1111911, 51.7041193], [5.1112265, 51.7040064], [5.111263, 51.7039662], [5.1113528, 51.7038339], [5.1115061, 51.7035764], [5.1089179, 51.7032419], [5.1087185, 51.7032162], [5.1045802, 51.7026813], [5.1030528, 51.7024838], [5.1030869, 51.7022632], [5.1032261, 51.7013649], [5.1032302, 51.7013378], [5.10324, 51.7012728], [5.1032929, 51.7009231], [5.1034023, 51.7001987], [5.1034473, 51.6999015], [5.1034878, 51.6996332], [5.1035707, 51.6991168], [5.1037518, 51.6979932], [5.1037708, 51.6978749], [5.1037751, 51.697848], [5.1039883, 51.6964305], [5.1041625, 51.695228], [5.1041871, 51.6950777], [5.1042024, 51.6949837], [5.1042451, 51.6947226], [5.1044686, 51.6933744], [5.104489, 51.6932513], [5.1044899, 51.6932442], [5.1046036, 51.6923479], [5.1046446, 51.691993], [5.104651, 51.6919378], [5.1047228, 51.6913177], [5.104749, 51.6910916], [5.1048833, 51.6900367], [5.1049275, 51.6896873], [5.1049286, 51.6896779], [5.1049526, 51.6894881], [5.1049842, 51.6892384], [5.1050759, 51.6885128], [5.1052109, 51.6874449], [5.1052848, 51.6868601], [5.1053854, 51.6860644], [5.1054678, 51.6854219], [5.1056247, 51.6841981], [5.1056584, 51.6839353], [5.1057458, 51.6832537], [5.1057837, 51.682952], [5.1058391, 51.6825113], [5.1061368, 51.6801409], [5.1063499, 51.6784591], [5.1064932, 51.6773278], [5.1050387, 51.6772375], [5.1044453, 51.6771995], [5.1038036, 51.6771572], [5.1033362, 51.6771293], [5.1031784, 51.6771194], [5.1031523, 51.6771177], [5.1025408, 51.6770794], [5.1018968, 51.6770406], [5.1017311, 51.6769063], [5.1015483, 51.6768404], [5.1015094, 51.6768347], [5.1015196, 51.67683], [5.1020148, 51.6766032], [5.1028871, 51.676216], [5.1041067, 51.6749856], [5.1016039, 51.672465], [5.1015813, 51.6724422], [5.1015984, 51.6724192], [5.1017532, 51.6722346], [5.1023115, 51.671943], [5.1020882, 51.6711445], [5.1017682, 51.6707113], [5.1018858, 51.6702588], [5.1019943, 51.6698373], [5.1020125, 51.6697656], [5.1021309, 51.6694604], [5.1023302, 51.6689461], [5.102718, 51.6683497], [5.1026653, 51.6680008], [5.1025767, 51.6674067], [5.1025205, 51.6670983], [5.1023476, 51.6666173], [5.1022344, 51.6662994], [5.1021879, 51.6660422], [5.1021008, 51.6655702], [5.1020201, 51.6651215], [5.1019329, 51.6646489], [5.1018448, 51.6641612], [5.1017806, 51.6637858], [5.101703, 51.6633591], [5.10163, 51.662932], [5.1016193, 51.6628822], [5.1016007, 51.6627962], [5.1015993, 51.6618114], [5.1015992, 51.6617399], [5.1016061, 51.6616358], [5.1016256, 51.6613445], [5.10178, 51.6604709], [5.1018609, 51.6600128], [5.1023707, 51.6571269], [5.1030478, 51.6532937], [5.1032574, 51.6521065], [5.103367, 51.6514862], [5.1049534, 51.6425015], [5.1051674, 51.6412891], [5.106137, 51.6359558], [5.1059863, 51.6359214], [5.1058582, 51.6358922], [5.1058303, 51.6358898], [5.1053837, 51.6354557], [5.1052333, 51.6353094], [5.1044997, 51.634836], [5.1043863, 51.6347628], [5.1037089, 51.6344442], [5.1030877, 51.6344925], [5.1028894, 51.634508], [5.1019284, 51.6342665], [5.101545, 51.6341702], [5.1014642, 51.6335044], [5.1013679, 51.6327119], [5.1013652, 51.6326894], [5.1013695, 51.6325992], [5.1006741, 51.6315638], [5.1006313, 51.6314866], [5.1005657, 51.6313681], [5.1005343, 51.6313113], [5.1005273, 51.6313056], [5.1004563, 51.6312473], [5.1004673, 51.6312307], [5.0989146, 51.6296914], [5.09891, 51.6296869], [5.0988759, 51.6296644], [5.0988253, 51.629631], [5.0987992, 51.6295987], [5.0983264, 51.6290427], [5.0982263, 51.6289002], [5.0981991, 51.6288521], [5.0981846, 51.6288226], [5.0981686, 51.6287137], [5.0981352, 51.628528], [5.0981192, 51.6282436], [5.0998492, 51.6278516], [5.0996301, 51.6269749], [5.0998866, 51.6263671], [5.1001715, 51.6256923], [5.1002563, 51.6253741], [5.100271, 51.6253191], [5.1004078, 51.6248061], [5.1004858, 51.6245134], [5.1004987, 51.6244652], [5.1006824, 51.6237762], [5.1009002, 51.6229596], [5.1010592, 51.6219228], [5.1010695, 51.6218232], [5.1011702, 51.6208545], [5.1012168, 51.6204059], [5.1012178, 51.6204036], [5.1013735, 51.6200213], [5.1014883, 51.6197395], [5.1019998, 51.6184835], [5.1025049, 51.6176553], [5.1029586, 51.6169111], [5.1013232, 51.6165805], [5.1010918, 51.6168749], [5.1010082, 51.6169937], [5.1009409, 51.6170929], [5.1008618, 51.6172395], [5.1007255, 51.6174956], [5.1006995, 51.6175405], [5.1005657, 51.6178553], [5.1004826, 51.6178522], [5.1003927, 51.617849], [5.099203, 51.6178054], [5.0991862, 51.6177685], [5.0991576, 51.6177063], [5.0986505, 51.6167014], [5.098443, 51.6162866], [5.0984346, 51.6162701], [5.09843, 51.6162626], [5.0979743, 51.6155187], [5.0979088, 51.6154117], [5.0976126, 51.6149281], [5.0975815, 51.6148672], [5.0975761, 51.614856], [5.0974223, 51.6144665], [5.0972859, 51.614122], [5.0971408, 51.6141204], [5.0965974, 51.6133631], [5.0963255, 51.6129296], [5.0960033, 51.6124658], [5.0958794, 51.612385], [5.0956091, 51.6122088], [5.0950733, 51.6119676], [5.0950497, 51.6119767], [5.0945313, 51.6116131], [5.0941274, 51.6114044], [5.0937453, 51.6112493], [5.0933092, 51.6112176], [5.0922575, 51.6111755], [5.090498, 51.6111097], [5.0885316, 51.611048], [5.0883151, 51.6110405], [5.0870167, 51.6109968], [5.0868643, 51.6109916], [5.0859996, 51.6109865], [5.0859894, 51.6109865], [5.0850572, 51.6109515], [5.085012, 51.6109501], [5.0840271, 51.6109193], [5.0839305, 51.6109163], [5.0839214, 51.6109158], [5.0828131, 51.6108754], [5.0817103, 51.6108435], [5.0802663, 51.6108027], [5.0799477, 51.6107969], [5.0794387, 51.6107842], [5.0794522, 51.6105749], [5.0801816, 51.6095423], [5.0787812, 51.6093898], [5.0777224, 51.6092734], [5.0776101, 51.6092569], [5.0755422, 51.6089523], [5.0754688, 51.6089495], [5.0754742, 51.6087086], [5.0755021, 51.6074602], [5.0755053, 51.6073183], [5.075511, 51.607062], [5.0755131, 51.6069687], [5.0755242, 51.6064724], [5.0755399, 51.6057677], [5.0742966, 51.6056983], [5.0740252, 51.605681], [5.0740281, 51.6058404], [5.0740355, 51.605975], [5.0740451, 51.6061112], [5.0740446, 51.6062318], [5.0740457, 51.6064685], [5.0740587, 51.609446], [5.0740588, 51.6094833], [5.0739247, 51.6094441], [5.0732439, 51.6092447], [5.0731063, 51.6091607], [5.0729703, 51.6090777], [5.072057, 51.6083105], [5.0710072, 51.6082272], [5.0709775, 51.6084706], [5.0709777, 51.6086338], [5.0709297, 51.6086375], [5.0709421, 51.6088104], [5.0709311, 51.6088451], [5.0708665, 51.6090496], [5.0708384, 51.6090467], [5.0707517, 51.6090376], [5.0706392, 51.609929], [5.0706127, 51.6101386], [5.0705905, 51.6102907], [5.0695954, 51.6101803], [5.0687568, 51.6100873], [5.0671549, 51.6099146], [5.0671635, 51.6098885], [5.0665275, 51.6098304], [5.0663581, 51.6098167], [5.0661319, 51.6097997], [5.065884, 51.6097758], [5.0651925, 51.6097095], [5.0646891, 51.6096549], [5.064011, 51.6095682], [5.0632936, 51.6095031], [5.0631438, 51.6094811], [5.0628147, 51.6094569], [5.0623759, 51.6094042], [5.0617714, 51.6093461], [5.0616936, 51.609424], [5.0608408, 51.6102781], [5.0604553, 51.6106705], [5.060387, 51.61074], [5.0601109, 51.6108168], [5.0599775, 51.6108219], [5.0599491, 51.610823], [5.0599239, 51.6108239], [5.0587806, 51.6108682], [5.0574826, 51.6109173], [5.0571742, 51.610929], [5.0564094, 51.6109143], [5.0551534, 51.6108901], [5.051822, 51.610826], [5.051834, 51.6106772], [5.0518405, 51.6105959], [5.0517185, 51.6106099], [5.0515175, 51.6106248], [5.0506627, 51.6106881], [5.050647, 51.6106892], [5.0497085, 51.6105406], [5.0489848, 51.6104244], [5.0489415, 51.6104176], [5.0485346, 51.610424], [5.0483567, 51.6104252], [5.0481824, 51.6104273], [5.0481297, 51.6104301], [5.0480411, 51.6104347], [5.0473335, 51.6104723], [5.0471906, 51.6104799], [5.046933, 51.6105192], [5.046831, 51.6105347], [5.0467128, 51.6105685], [5.0464893, 51.6106325], [5.0463554, 51.6106708], [5.0460104, 51.6107832], [5.0457027, 51.6108835], [5.0455768, 51.6109245], [5.0453719, 51.610987], [5.0450109, 51.6110971], [5.0449341, 51.6108813], [5.0448756, 51.6107165], [5.0442525, 51.6092065], [5.0439129, 51.6084999], [5.0439432, 51.6081297], [5.0439953, 51.6074937], [5.044025, 51.6073597], [5.0441109, 51.6073181], [5.0440455, 51.6072484], [5.0439266, 51.6071214], [5.0434979, 51.6066611], [5.0434342, 51.6066696], [5.0433737, 51.6065527], [5.0433974, 51.6065507], [5.0432425, 51.606382], [5.0429273, 51.6060386], [5.0420366, 51.6061375], [5.0413456, 51.606211], [5.0411908, 51.6062275], [5.0411551, 51.6062313]]]}}]}