{"features":[{"type":"Feature","properties":{"name":"Dongen","source":"OpenStreetMap/Nominatim","osm":"relation/2722822"},"geometry":{"type":"Polygon","coordinates":[[[4.9042793,51.6243326],[4.9044393,51.6243065],[4.906974,51.6238938],[4.9070583,51.6238797],[4.9071307,51.6238677],[4.9071901,51.6238578],[4.9088422,51.6235827],[4.9088842,51.6235757],[4.9101155,51.6233706],[4.9101009,51.6233601],[4.9106535,51.6232681],[4.9111448,51.6231863],[4.9111205,51.6231709],[4.9123755,51.622962],[4.9138836,51.622711],[4.914246,51.6226507],[4.9150662,51.6225141],[4.9153489,51.6224662],[4.9155163,51.622439],[4.9155545,51.6224329],[4.9155483,51.6224158],[4.9154283,51.6220856],[4.9153625,51.6219264],[4.9153623,51.621926],[4.9152973,51.6217746],[4.915269,51.6217088],[4.9152631,51.6216951],[4.9150343,51.6211719],[4.9149322,51.6209976],[4.9148047,51.6207948],[4.9146437,51.6205738],[4.9144607,51.6203963],[4.9143865,51.6203169],[4.9140011,51.619973],[4.9135589,51.6196377],[4.9134611,51.6196376],[4.9128276,51.619622],[4.9124669,51.6195569],[4.9122316,51.6194798],[4.9122283,51.6194755],[4.9121378,51.6194061],[4.9121179,51.619391],[4.9119993,51.6193276],[4.9118125,51.6192372],[4.9116269,51.6191581],[4.911479,51.6191009],[4.9113677,51.6190684],[4.9109473,51.6188857],[4.91078,51.6188053],[4.9107009,51.6187623],[4.9098997,51.6183271],[4.9104011,51.6182313],[4.910707,51.6181753],[4.9113268,51.6180618],[4.911319,51.6179318],[4.9112788,51.6175491],[4.9111359,51.6175547],[4.9111752,51.6172044],[4.9111482,51.6171287],[4.9111316,51.6170484],[4.9111168,51.6169642],[4.9111039,51.6168637],[4.9111016,51.6167005],[4.9111014,51.6166181],[4.9111066,51.6165466],[4.9111107,51.6164941],[4.9111216,51.6163921],[4.9111349,51.6163242],[4.9111531,51.616228],[4.9111674,51.6161566],[4.9111972,51.6160789],[4.91123,51.6159874],[4.9112608,51.6159045],[4.9112934,51.6158246],[4.9113233,51.6157498],[4.9113317,51.6157267],[4.9113465,51.615693],[4.9115238,51.6157122],[4.911605,51.6157293],[4.9116179,51.6157149],[4.9116187,51.6157135],[4.9116141,51.6157127],[4.9118476,51.6154396],[4.9118817,51.6153993],[4.9119632,51.615411],[4.9120191,51.615419],[4.9120729,51.6154268],[4.9123115,51.6154611],[4.9134125,51.6156203],[4.9180807,51.6162945],[4.9181203,51.6162745],[4.9188019,51.6159308],[4.9192281,51.6157734],[4.9196976,51.6156019],[4.9203929,51.6153479],[4.9213229,51.6150053],[4.9214758,51.6149493],[4.9224499,51.6145929],[4.922742,51.6144862],[4.9228138,51.6144599],[4.9235474,51.6141918],[4.9237653,51.6141114],[4.9239811,51.6140318],[4.9244361,51.6138598],[4.9249621,51.6136495],[4.9251831,51.6135888],[4.9255165,51.6134971],[4.9257526,51.6134328],[4.9262855,51.6132785],[4.9264377,51.6132342],[4.9266651,51.6131794],[4.9268589,51.6131383],[4.9269788,51.6131129],[4.9272398,51.6130703],[4.9275192,51.6130213],[4.9278349,51.6129817],[4.9281271,51.6129735],[4.9290298,51.6128177],[4.9295804,51.6127227],[4.9304937,51.612566],[4.9308283,51.6125086],[4.9315474,51.612384],[4.932152,51.6122795],[4.9323273,51.6122492],[4.9323642,51.6122428],[4.9324881,51.6122214],[4.9325419,51.6122121],[4.9327074,51.6121854],[4.9333504,51.6120776],[4.9353319,51.6117374],[4.9355466,51.6117006],[4.9365427,51.6115288],[4.9367634,51.6114908],[4.9373144,51.6113966],[4.9370406,51.6110211],[4.9378167,51.6108881],[4.9378275,51.6108862],[4.939037,51.6105514],[4.9396627,51.6103782],[4.940312,51.6101984],[4.9415043,51.6101369],[4.943591,51.6100292],[4.9437168,51.6105414],[4.9438794,51.6112034],[4.9439063,51.6113129],[4.9439451,51.6114706],[4.9444202,51.6113894],[4.9452882,51.6112453],[4.9458481,51.6111525],[4.946572,51.6110995],[4.9472709,51.6111061],[4.9476126,51.6111233],[4.9477892,51.6111588],[4.9478464,51.6111703],[4.947846,51.6111706],[4.9479162,51.6111828],[4.9482895,51.611248],[4.948933,51.6114473],[4.9489414,51.6114499],[4.9494564,51.611713],[4.9498521,51.6119727],[4.9499351,51.6120621],[4.9500643,51.6121989],[4.9500945,51.6122308],[4.950098,51.6122345],[4.9502656,51.6124119],[4.9502834,51.6124307],[4.9504395,51.6125958],[4.9506086,51.6127747],[4.9506469,51.612829],[4.9507728,51.6130076],[4.9507813,51.6130046],[4.9508131,51.6129934],[4.950839,51.613019],[4.9512714,51.6134458],[4.9513039,51.6134763],[4.9513492,51.6135164],[4.951391,51.6135519],[4.9514277,51.6135824],[4.9514665,51.6136132],[4.9515847,51.6137021],[4.9516222,51.6137307],[4.9516577,51.6137546],[4.9517024,51.6137853],[4.9518194,51.6138608],[4.9518695,51.6138899],[4.9519059,51.613913],[4.9519398,51.6139317],[4.9519676,51.6139452],[4.9519985,51.6139619],[4.9520189,51.6139713],[4.9520969,51.6140096],[4.9521552,51.6140357],[4.9521999,51.614055],[4.9522426,51.6140731],[4.9522769,51.6140879],[4.9523321,51.6141108],[4.9523897,51.6141328],[4.9524494,51.6141551],[4.9524994,51.6141736],[4.9525962,51.614204],[4.9527698,51.6142623],[4.9527993,51.6142864],[4.9527778,51.6143469],[4.9527309,51.6144127],[4.9529164,51.6147001],[4.9529312,51.6147232],[4.9531899,51.6147231],[4.9539268,51.6147016],[4.9540583,51.6146978],[4.9544621,51.6146862],[4.9548395,51.6145728],[4.9549534,51.614536],[4.9551545,51.6145029],[4.9555116,51.6144034],[4.9561174,51.6142466],[4.9561945,51.6141636],[4.9562027,51.6141548],[4.9563562,51.6140933],[4.9567123,51.6140128],[4.9567511,51.614004],[4.9573457,51.6138695],[4.9574163,51.6138562],[4.9578621,51.6137585],[4.9584373,51.6137491],[4.9584606,51.613749],[4.9584907,51.6137488],[4.9587472,51.6137473],[4.9592191,51.6137369],[4.9593145,51.6137341],[4.959319,51.613734],[4.9594404,51.6137304],[4.9596398,51.6137022],[4.9601565,51.6136027],[4.9604653,51.6135459],[4.9605209,51.6135354],[4.9607816,51.6134866],[4.96115,51.6134444],[4.9615674,51.6134029],[4.9617176,51.6133558],[4.9619532,51.6132819],[4.9620732,51.6132427],[4.9621046,51.6132325],[4.9622821,51.6131818],[4.9623721,51.6131591],[4.9623876,51.6131552],[4.9626028,51.6131022],[4.9626969,51.6130974],[4.9628562,51.6131021],[4.9629903,51.6131045],[4.9631234,51.6131132],[4.963256,51.6131295],[4.9632873,51.6131354],[4.9634118,51.6131589],[4.9635984,51.613191],[4.9636535,51.6132005],[4.9637916,51.6132232],[4.9639193,51.6132237],[4.9642752,51.6131849],[4.9643076,51.6131877],[4.9644208,51.6131987],[4.9644332,51.6131999],[4.9647134,51.6131339],[4.9647759,51.613114],[4.9651957,51.6129771],[4.9665553,51.6125325],[4.9670578,51.6123732],[4.9684618,51.6119236],[4.9685223,51.6118996],[4.9690556,51.6116884],[4.9703227,51.6111866],[4.9708466,51.6110185],[4.9712684,51.6108904],[4.972101,51.6106455],[4.9725817,51.6105042],[4.9728958,51.6104123],[4.974687,51.6098887],[4.9760789,51.6094832],[4.9767944,51.6092734],[4.9768401,51.6092618],[4.9770339,51.6092124],[4.9773321,51.6091352],[4.9775536,51.6090906],[4.9778414,51.6090497],[4.9780212,51.6090332],[4.9781952,51.6090217],[4.97837,51.6090162],[4.978562,51.6090144],[4.9785648,51.6089335],[4.978877,51.6089377],[4.9803938,51.6089581],[4.9805776,51.6089605],[4.9806282,51.6089612],[4.981856,51.6087516],[4.9823599,51.6086656],[4.9827449,51.6083721],[4.9828482,51.6082933],[4.9828875,51.6082634],[4.9829292,51.6082035],[4.9829934,51.6081113],[4.9835137,51.6073641],[4.98451,51.6076331],[4.9855352,51.6078167],[4.9857421,51.6078315],[4.9857572,51.6078326],[4.9857605,51.6078145],[4.9862987,51.607868],[4.9863243,51.6078706],[4.9863152,51.6079094],[4.9880638,51.6079005],[4.9885485,51.607898],[4.9886262,51.6079739],[4.9886765,51.608023],[4.9886864,51.6080327],[4.9905417,51.6080089],[4.9908861,51.6079247],[4.99373,51.6078879],[4.996283,51.6078547],[4.9968491,51.6078485],[4.9969237,51.6078477],[4.9969234,51.607825],[4.9969648,51.6078248],[4.997432,51.6078225],[4.9980584,51.6078194],[4.9987267,51.6078161],[4.9994472,51.6077723],[4.9995678,51.607765],[5.0006194,51.6077011],[5.0014363,51.6076514],[5.0027232,51.6076245],[5.0034145,51.60761],[5.0039471,51.6075571],[5.0038186,51.6073438],[5.0037374,51.6072092],[5.0042153,51.6070931],[5.004272,51.6071836],[5.0044966,51.607542],[5.0044921,51.6078868],[5.0042648,51.6078963],[5.0042287,51.6079938],[5.0042065,51.6080866],[5.0039302,51.6088583],[5.0038948,51.6089555],[5.0036086,51.6097413],[5.0034773,51.6101026],[5.0032416,51.6107519],[5.0030704,51.6112236],[5.0024192,51.6130257],[5.0023986,51.6130829],[5.0023923,51.6131001],[5.0016106,51.6152408],[5.0011513,51.6164988],[5.0011288,51.6165701],[5.0010682,51.6167619],[5.0005918,51.6180463],[5.0000537,51.6195065],[4.9994933,51.6210308],[4.9991161,51.6220475],[4.9985732,51.6235121],[4.9985642,51.6235364],[4.9985621,51.6235412],[4.9985773,51.6235668],[4.9983659,51.6239997],[4.9982818,51.6242185],[4.9981454,51.6245729],[4.9978998,51.6252575],[4.9976249,51.6259999],[4.9972674,51.6269752],[4.9971745,51.6272285],[4.9970941,51.6274454],[4.9967688,51.6283576],[4.9963873,51.6294171],[4.9960813,51.6302618],[4.995813,51.6310187],[4.9956764,51.6313737],[4.995657,51.6314313],[4.9956232,51.6315265],[4.995373,51.632247],[4.9952699,51.6325628],[4.9950327,51.6331962],[4.9949075,51.6335305],[4.994565,51.6344809],[4.9943019,51.635204],[4.9942273,51.6354089],[4.994219,51.6354319],[4.9942065,51.6354661],[4.9941227,51.6356964],[4.9938342,51.6364826],[4.9935459,51.6372713],[4.9931432,51.6384337],[4.9929599,51.6389168],[4.992719,51.6395653],[4.9924977,51.6401745],[4.9923577,51.6405515],[4.9922891,51.6407365],[4.9921978,51.6409824],[4.9919152,51.64173],[4.9917507,51.6421738],[4.9916883,51.6423424],[4.9914049,51.6431198],[4.9912214,51.6436282],[4.9909463,51.6443724],[4.9908023,51.6447685],[4.9905788,51.6453849],[4.9905371,51.6454965],[4.9902876,51.6461831],[4.9901214,51.6466333],[4.9897999,51.6475243],[4.9897034,51.6477579],[4.9896767,51.6478316],[4.9895498,51.6482226],[4.9894663,51.6484831],[4.9893877,51.6486633],[4.9893695,51.6486601],[4.9893594,51.6487013],[4.9892994,51.6489466],[4.989249,51.649079],[4.9891246,51.6494059],[4.9890811,51.649523],[4.9889871,51.6497758],[4.9887578,51.6503593],[4.9887388,51.6504088],[4.9886146,51.6507569],[4.9885001,51.6510778],[4.9884735,51.6511513],[4.9883274,51.6515557],[4.9881664,51.6520014],[4.9879249,51.6526505],[4.9877911,51.6530231],[4.987735,51.6531795],[4.9876452,51.6534251],[4.9876307,51.6534654],[4.9875665,51.6536354],[4.9875499,51.6536877],[4.987458,51.6539478],[4.9872621,51.6545205],[4.9872669,51.6546089],[4.9864203,51.6545228],[4.9862552,51.654506],[4.9842686,51.6543001],[4.9827936,51.654153],[4.9822477,51.6540981],[4.9820955,51.6541274],[4.9788733,51.6537767],[4.9783284,51.6537269],[4.9783256,51.6537368],[4.9766024,51.6535711],[4.976607,51.6535547],[4.9765438,51.6535483],[4.976542,51.6535481],[4.9763554,51.6535278],[4.9756658,51.6534571],[4.9756375,51.6534541],[4.9731652,51.6531995],[4.9691647,51.6527601],[4.9681458,51.6526481],[4.9677008,51.6525991],[4.9673854,51.6525644],[4.9667669,51.6525021],[4.9652283,51.6523264],[4.9630612,51.6520845],[4.9629871,51.6520771],[4.9619641,51.6519746],[4.9607842,51.6518515],[4.9599872,51.6517665],[4.9597451,51.6517403],[4.9590007,51.651663],[4.9586714,51.6516295],[4.9584171,51.6515968],[4.9579196,51.651535],[4.9578968,51.6515319],[4.9578801,51.6515296],[4.9570038,51.6514084],[4.9569663,51.6514032],[4.9568998,51.6513941],[4.9567729,51.6513837],[4.9566476,51.6513794],[4.956358,51.6513528],[4.9563296,51.6513487],[4.9561878,51.6513332],[4.9551523,51.6512124],[4.9543262,51.6511224],[4.9536411,51.6510495],[4.9534372,51.6510268],[4.9524737,51.6509196],[4.9511153,51.6507536],[4.9509535,51.6507317],[4.9508343,51.6507096],[4.9500759,51.6506302],[4.9488363,51.6504973],[4.9477166,51.6503786],[4.9466132,51.6502573],[4.9455246,51.6501368],[4.9448685,51.6500648],[4.9447999,51.6500505],[4.9446604,51.6499439],[4.9445233,51.6498875],[4.9443225,51.6498702],[4.9440931,51.6498738],[4.9438769,51.6499508],[4.9437281,51.6499407],[4.9435512,51.6499199],[4.9428076,51.6498433],[4.9426295,51.6498447],[4.94236,51.6498181],[4.9420498,51.6497808],[4.9420152,51.6497768],[4.9419223,51.6497274],[4.9418667,51.6497005],[4.9411674,51.649658],[4.9409249,51.6496365],[4.9399685,51.6495529],[4.9392764,51.6494903],[4.9388346,51.6494503],[4.9379046,51.6493678],[4.9366522,51.6492605],[4.9364894,51.6492453],[4.9357757,51.6491922],[4.9357173,51.6491874],[4.9351401,51.6491407],[4.9349405,51.6491236],[4.9348005,51.649196],[4.934536,51.6493299],[4.9344006,51.649379],[4.9340753,51.6494943],[4.9339683,51.6495372],[4.9339114,51.6495624],[4.9337809,51.6496397],[4.9337324,51.649685],[4.9336231,51.6498075],[4.933584,51.6498413],[4.9335515,51.6498698],[4.9335089,51.6499149],[4.9334486,51.6499757],[4.933377,51.6500512],[4.9333363,51.6500875],[4.9332911,51.6501178],[4.9331874,51.6501781],[4.9330823,51.6502413],[4.9330418,51.6502675],[4.93292,51.6503607],[4.9328889,51.6503836],[4.9328536,51.6504339],[4.9328419,51.6504958],[4.9328353,51.6505453],[4.9328259,51.6505866],[4.9328226,51.6506154],[4.9328158,51.6506977],[4.932782,51.6506452],[4.9327448,51.6506179],[4.93266,51.650579],[4.9325748,51.6505416],[4.9324911,51.6505077],[4.9323208,51.6504373],[4.9321526,51.6503687],[4.9320775,51.650328],[4.9319973,51.6502865],[4.9318778,51.6502262],[4.9317606,51.6501767],[4.9316325,51.65013],[4.9314444,51.6500749],[4.9313108,51.6500386],[4.9311663,51.6500036],[4.9310733,51.6499766],[4.9309902,51.649931],[4.9309222,51.6498858],[4.9308289,51.6498006],[4.9307496,51.6497258],[4.9307144,51.6497007],[4.9306808,51.6496797],[4.9305956,51.649644],[4.9305126,51.6496105],[4.9304317,51.6495757],[4.9303809,51.649562],[4.9303544,51.6495414],[4.9303358,51.649509],[4.9303036,51.6494461],[4.9302768,51.6493665],[4.9302542,51.6492734],[4.9302444,51.6492108],[4.9302344,51.6491375],[4.9302346,51.6489448],[4.930232,51.6487611],[4.9302324,51.6485743],[4.9302185,51.6484439],[4.9302012,51.6483193],[4.9301621,51.6481529],[4.930106,51.6479548],[4.9301022,51.6479414],[4.9300107,51.6479914],[4.9293792,51.6484594],[4.9292803,51.6485323],[4.9292823,51.6482061],[4.929278,51.6479601],[4.9292375,51.6475642],[4.9292486,51.6472171],[4.9292045,51.6469079],[4.9292028,51.6468745],[4.9269616,51.6451136],[4.9267706,51.6449592],[4.9259254,51.6442762],[4.925106,51.6436161],[4.9245462,51.6431325],[4.9240014,51.6426658],[4.9239175,51.6425967],[4.9235205,51.6422778],[4.9228393,51.6417359],[4.9222569,51.6412814],[4.9220333,51.6411046],[4.9214503,51.6406338],[4.9206412,51.6399857],[4.9198486,51.6393431],[4.9187552,51.6384546],[4.9181489,51.6379701],[4.9171064,51.637122],[4.9170323,51.6370621],[4.9161033,51.6363251],[4.9154792,51.6358357],[4.914917,51.6354161],[4.9142954,51.6349452],[4.9141122,51.6347889],[4.9141101,51.6347872],[4.9137123,51.6344598],[4.9131918,51.6340228],[4.9128624,51.6336831],[4.9126134,51.6333107],[4.9122293,51.6327695],[4.9117845,51.6321413],[4.9112632,51.6314102],[4.9110716,51.6311416],[4.9110634,51.6311305],[4.9109908,51.6309476],[4.9109374,51.6308478],[4.910757,51.6305903],[4.9105433,51.6302889],[4.9101361,51.6296989],[4.9100575,51.6295641],[4.9100351,51.6295136],[4.9100282,51.6294601],[4.9100444,51.6293792],[4.9100583,51.6293155],[4.91034,51.6280224],[4.9104064,51.6277515],[4.9104279,51.6276677],[4.9104518,51.6276147],[4.9105011,51.627492],[4.910519,51.627464],[4.9105378,51.6274259],[4.9106025,51.6273594],[4.910679,51.6273133],[4.9107945,51.6272583],[4.9110357,51.6271759],[4.9112777,51.6270874],[4.9121174,51.6268255],[4.9120754,51.6267599],[4.9118629,51.6264279],[4.9118226,51.6263649],[4.9112349,51.6262591],[4.9105473,51.6260372],[4.9090067,51.6256075],[4.9066248,51.6249661],[4.9062079,51.6248535],[4.9056897,51.6247136],[4.9055838,51.624685],[4.905551,51.6246761],[4.9044432,51.6243768],[4.9043283,51.6243458],[4.9043095,51.6243407],[4.9042793,51.6243326]]]}},{"type":"Feature","properties":{"name":"Loon op Zand","source":"OpenStreetMap/Nominatim","osm":"relation/2722768"},"geometry":{"type":"Polygon","coordinates":[[[5.0226891,51.6334216],[5.0270498,51.6306068],[5.0334346,51.6241982],[5.0456897,51.6241917],[5.0459955,51.6231062],[5.0413683,51.6220793],[5.0411125,51.6195073],[5.0383672,51.6184279],[5.0391441,51.615859],[5.0439957,51.6163526],[5.0412487,51.6149423],[5.0406125,51.6131786],[5.0376628,51.6118755],[5.0380814,51.6101726],[5.0410702,51.6075999],[5.0413456,51.606211],[5.0420366,51.6061375],[5.0429273,51.6060386],[5.0432425,51.606382],[5.0433974,51.6065507],[5.0433737,51.6065527],[5.0434342,51.6066696],[5.0434979,51.6066611],[5.0439266,51.6071214],[5.0440455,51.6072484],[5.0441109,51.6073181],[5.044025,51.6073597],[5.0439953,51.6074937],[5.0439432,51.6081297],[5.0439129,51.6084999],[5.0442525,51.6092065],[5.0448756,51.6107165],[5.0449341,51.6108813],[5.0450109,51.6110971],[5.0453719,51.610987],[5.0455768,51.6109245],[5.0457027,51.6108835],[5.0460104,51.6107832],[5.0463554,51.6106708],[5.0464893,51.6106325],[5.0467128,51.6105685],[5.046831,51.6105347],[5.046933,51.6105192],[5.0471906,51.6104799],[5.0473335,51.6104723],[5.0480411,51.6104347],[5.0481297,51.6104301],[5.0481824,51.6104273],[5.0483567,51.6104252],[5.0485346,51.610424],[5.0489415,51.6104176],[5.0489848,51.6104244],[5.0497085,51.6105406],[5.050647,51.6106892],[5.0506627,51.6106881],[5.0515175,51.6106248],[5.0517185,51.6106099],[5.0518405,51.6105959],[5.051834,51.6106772],[5.051822,51.610826],[5.0551534,51.6108901],[5.0564094,51.6109143],[5.0571742,51.610929],[5.0574826,51.6109173],[5.0587806,51.6108682],[5.0599239,51.6108239],[5.0599491,51.610823],[5.0599775,51.6108219],[5.0601109,51.6108168],[5.060387,51.61074],[5.0604553,51.6106705],[5.0608408,51.6102781],[5.0616936,51.609424],[5.0617714,51.6093461],[5.0623759,51.6094042],[5.0628147,51.6094569],[5.0631438,51.6094811],[5.0632936,51.6095031],[5.064011,51.6095682],[5.0646891,51.6096549],[5.0651925,51.6097095],[5.065884,51.6097758],[5.0661319,51.6097997],[5.0663581,51.6098167],[5.0665275,51.6098304],[5.0671635,51.6098885],[5.0671549,51.6099146],[5.0687568,51.6100873],[5.0695954,51.6101803],[5.0705905,51.6102907],[5.0706127,51.6101386],[5.0706392,51.609929],[5.0707517,51.6090376],[5.0708384,51.6090467],[5.0708665,51.6090496],[5.0709311,51.6088451],[5.0709421,51.6088104],[5.0709297,51.6086375],[5.0709777,51.6086338],[5.0709775,51.6084706],[5.0710072,51.6082272],[5.072057,51.6083105],[5.0729703,51.6090777],[5.0731063,51.6091607],[5.0732439,51.6092447],[5.0739247,51.6094441],[5.0740588,51.6094833],[5.0740587,51.609446],[5.0740457,51.6064685],[5.0740446,51.6062318],[5.0740451,51.6061112],[5.0740355,51.605975],[5.0740281,51.6058404],[5.0740252,51.605681],[5.0742966,51.6056983],[5.0755399,51.6057677],[5.0755242,51.6064724],[5.0755131,51.6069687],[5.075511,51.607062],[5.0755053,51.6073183],[5.0755021,51.6074602],[5.0754742,51.6087086],[5.0754688,51.6089495],[5.0755422,51.6089523],[5.0776101,51.6092569],[5.0777224,51.6092734],[5.0787812,51.6093898],[5.0801816,51.6095423],[5.0794522,51.6105749],[5.0794387,51.6107842],[5.0799477,51.6107969],[5.0802663,51.6108027],[5.0817103,51.6108435],[5.0828131,51.6108754],[5.0839214,51.6109158],[5.0839305,51.6109163],[5.0840271,51.6109193],[5.085012,51.6109501],[5.0850572,51.6109515],[5.0859894,51.6109865],[5.0859996,51.6109865],[5.0868643,51.6109916],[5.0870167,51.6109968],[5.0883151,51.6110405],[5.0885316,51.611048],[5.090498,51.6111097],[5.0922575,51.6111755],[5.0933092,51.6112176],[5.0937453,51.6112493],[5.0941274,51.6114044],[5.0945313,51.6116131],[5.0950497,51.6119767],[5.0950733,51.6119676],[5.0956091,51.6122088],[5.0958794,51.612385],[5.0960033,51.6124658],[5.0963255,51.6129296],[5.0965974,51.6133631],[5.0971408,51.6141204],[5.0972859,51.614122],[5.0974223,51.6144665],[5.0975761,51.614856],[5.0975815,51.6148672],[5.0976126,51.6149281],[5.0979088,51.6154117],[5.0979743,51.6155187],[5.09843,51.6162626],[5.0984346,51.6162701],[5.098443,51.6162866],[5.0986505,51.6167014],[5.0991576,51.6177063],[5.0991862,51.6177685],[5.099203,51.6178054],[5.1003927,51.617849],[5.1004826,51.6178522],[5.1005657,51.6178553],[5.1006995,51.6175405],[5.1007255,51.6174956],[5.1008618,51.6172395],[5.1009409,51.6170929],[5.1010082,51.6169937],[5.1010918,51.6168749],[5.1013232,51.6165805],[5.1029586,51.6169111],[5.1025049,51.6176553],[5.1019998,51.6184835],[5.1014883,51.6197395],[5.1013735,51.6200213],[5.1012178,51.6204036],[5.1012168,51.6204059],[5.1011702,51.6208545],[5.1010695,51.6218232],[5.1010592,51.6219228],[5.1009002,51.6229596],[5.1006824,51.6237762],[5.1004987,51.6244652],[5.1004858,51.6245134],[5.1004078,51.6248061],[5.100271,51.6253191],[5.1002563,51.6253741],[5.1001715,51.6256923],[5.0998866,51.6263671],[5.0996301,51.6269749],[5.0998492,51.6278516],[5.0981192,51.6282436],[5.0981352,51.628528],[5.0981686,51.6287137],[5.0981846,51.6288226],[5.0981991,51.6288521],[5.0982263,51.6289002],[5.0983264,51.6290427],[5.0987992,51.6295987],[5.0988253,51.629631],[5.0988759,51.6296644],[5.09891,51.6296869],[5.0989146,51.6296914],[5.1004673,51.6312307],[5.1004563,51.6312473],[5.1005273,51.6313056],[5.1005343,51.6313113],[5.1005657,51.6313681],[5.1006313,51.6314866],[5.1006741,51.6315638],[5.1013695,51.6325992],[5.1013652,51.6326894],[5.1013679,51.6327119],[5.1014642,51.6335044],[5.101545,51.6341702],[5.1019284,51.6342665],[5.1028894,51.634508],[5.1030877,51.6344925],[5.1037089,51.6344442],[5.1043863,51.6347628],[5.1044997,51.634836],[5.1052333,51.6353094],[5.1053837,51.6354557],[5.1058303,51.6358898],[5.1058582,51.6358922],[5.1059863,51.6359214],[5.106137,51.6359558],[5.1051674,51.6412891],[5.1049534,51.6425015],[5.103367,51.6514862],[5.1032574,51.6521065],[5.1030478,51.6532937],[5.0974256,51.6484995],[5.094633,51.6473322],[5.0942301,51.6471638],[5.0888759,51.6513846],[5.0851062,51.6494696],[5.0818131,51.6466303],[5.0787493,51.6460832],[5.0766158,51.6463564],[5.072513,51.6448458],[5.0721604,51.6452675],[5.0706547,51.6451712],[5.0671393,51.6426793],[5.0642234,51.6420809],[5.0600397,51.6415183],[5.0519122,51.6423707],[5.0406489,51.6425658],[5.0392835,51.6432182],[5.0347407,51.642762],[5.035075,51.6410892],[5.0367225,51.6353071],[5.0346787,51.6350325],[5.0226891,51.6334216]]]}},{"type":"Feature","properties":{"name":"Waalwijk","source":"OpenStreetMap/Nominatim","osm":"relation/161403"},"geometry":{"type":"Polygon","coordinates":[[[5.0276543,51.7110613],[5.0277446,51.7101735],[5.0277957,51.7096704],[5.0279464,51.7096629],[5.0279477,51.7096161],[5.0281243,51.7078801],[5.0281389,51.7077687],[5.0281972,51.7072098],[5.0282395,51.706818],[5.0282589,51.7066365],[5.0283405,51.7059646],[5.0283425,51.7056731],[5.028388,51.7052119],[5.0284258,51.7048285],[5.0284471,51.7043573],[5.0284655,51.7038844],[5.0285881,51.702979],[5.0286498,51.7020765],[5.0286622,51.7019363],[5.0287162,51.7017276],[5.0287477,51.7015811],[5.0287939,51.7012399],[5.0288242,51.7008614],[5.0288727,51.7001909],[5.0289173,51.6994732],[5.0289673,51.6988359],[5.0290435,51.6981729],[5.029228,51.696226],[5.0292911,51.69556],[5.0292918,51.6955523],[5.0293091,51.69542],[5.0295902,51.6927592],[5.0296012,51.6923905],[5.0296076,51.6923275],[5.0296116,51.692288],[5.02978,51.6906191],[5.0298141,51.6902465],[5.0298424,51.6901059],[5.0298441,51.690018],[5.0298547,51.6899663],[5.0298668,51.6898993],[5.0298915,51.689791],[5.0298993,51.6893565],[5.0299164,51.6891254],[5.029936,51.6889347],[5.0300021,51.6882629],[5.0300369,51.6879877],[5.030054,51.6878335],[5.0300629,51.6878052],[5.0300828,51.6877643],[5.0301185,51.6877298],[5.0301584,51.6877133],[5.0302179,51.6876928],[5.0304382,51.6875536],[5.0306643,51.687405],[5.030868,51.6872558],[5.0308853,51.6872424],[5.0310099,51.6871461],[5.0317276,51.6866567],[5.0322839,51.6862752],[5.0324582,51.6861557],[5.0328896,51.6858602],[5.0333251,51.685522],[5.0335735,51.6853314],[5.033686,51.6852467],[5.0337924,51.6851691],[5.0338806,51.6851082],[5.0342473,51.6848465],[5.0345901,51.6846028],[5.0351125,51.6842303],[5.0359651,51.6836192],[5.0363014,51.6833796],[5.0370181,51.6828679],[5.0373924,51.6825987],[5.0378032,51.6823063],[5.0384132,51.6818693],[5.0384955,51.681811],[5.038781,51.6816074],[5.0387874,51.6816028],[5.0392838,51.6812485],[5.039291,51.6812433],[5.0397079,51.6809457],[5.0397148,51.6809411],[5.039863,51.6808438],[5.0398748,51.6808163],[5.0401124,51.6806636],[5.0329905,51.6796566],[5.0314391,51.6794249],[5.0314442,51.6793789],[5.0316433,51.6774879],[5.0316622,51.6774008],[5.0316869,51.6771676],[5.0318081,51.6760219],[5.0320471,51.6737141],[5.0324529,51.6701027],[5.033122,51.6701086],[5.0331245,51.6700859],[5.0336543,51.6701103],[5.0336547,51.6701065],[5.0338889,51.6701276],[5.0341645,51.6701503],[5.034229,51.6695132],[5.0342674,51.6691888],[5.034733,51.6692054],[5.0347249,51.6692769],[5.0347185,51.6693335],[5.034729,51.6693335],[5.0347284,51.669334],[5.0347623,51.6693338],[5.034766,51.6693016],[5.0347688,51.669277],[5.0347917,51.6690754],[5.0349078,51.6690791],[5.0349613,51.6690808],[5.0349934,51.6690818],[5.0351269,51.6690861],[5.035144,51.6689321],[5.0351552,51.6688304],[5.0355225,51.6688621],[5.03553,51.6688626],[5.0356011,51.6688675],[5.0356952,51.6688741],[5.0357434,51.6688786],[5.0357219,51.6691173],[5.0357345,51.6691178],[5.0357154,51.6693292],[5.0359871,51.6693278],[5.0360879,51.6693432],[5.0361337,51.6688985],[5.0362193,51.6689019],[5.0361923,51.6691668],[5.0364913,51.6691799],[5.0365034,51.6690617],[5.0367344,51.6690719],[5.0367622,51.6688286],[5.0369761,51.6688352],[5.0370929,51.6688388],[5.0372436,51.6688435],[5.0374237,51.6688499],[5.0375582,51.6688543],[5.0375414,51.6689863],[5.0380471,51.6690007],[5.0380933,51.6685783],[5.038112,51.6685831],[5.0381589,51.6685994],[5.0384839,51.6687789],[5.0385686,51.6687657],[5.0385984,51.6687839],[5.0386998,51.6688316],[5.0388012,51.6688793],[5.0388219,51.6688891],[5.0388829,51.6683097],[5.0388994,51.6681523],[5.0391204,51.6681617],[5.039101,51.6683411],[5.0394011,51.6683539],[5.0393932,51.6684257],[5.0396541,51.6684368],[5.0396269,51.6686699],[5.0400338,51.6686873],[5.0400644,51.6684102],[5.0400846,51.6682271],[5.0401029,51.6680622],[5.0405306,51.6680814],[5.0404304,51.6689417],[5.0405534,51.6689691],[5.0404938,51.6695585],[5.0407175,51.6695673],[5.0405748,51.6709802],[5.0410234,51.6709977],[5.0409664,51.6715629],[5.0405177,51.6715453],[5.0402975,51.6737251],[5.0414675,51.6733951],[5.0421929,51.6731904],[5.0426275,51.6730774],[5.0425212,51.6740808],[5.0433887,51.6741169],[5.0435006,51.6731336],[5.0438677,51.6730301],[5.0440772,51.6729702],[5.0442087,51.6729332],[5.044383,51.6728841],[5.0444146,51.6728753],[5.044527,51.6728426],[5.0447604,51.6727749],[5.045104,51.6726895],[5.0451041,51.6726887],[5.0453329,51.6726464],[5.0453986,51.6726492],[5.0454036,51.6725989],[5.0456822,51.6726094],[5.0456937,51.6724774],[5.0462429,51.6724925],[5.0464766,51.672497],[5.0464776,51.6724898],[5.046634,51.6724985],[5.0466365,51.6724987],[5.046641,51.672499],[5.0466489,51.6724556],[5.0466891,51.6722341],[5.0469438,51.6721937],[5.0469451,51.6721814],[5.0471464,51.6721892],[5.0471716,51.671941],[5.0476617,51.6719601],[5.0476509,51.6721349],[5.04789,51.6720656],[5.0493463,51.6718458],[5.0501966,51.6718777],[5.050059,51.6733856],[5.0499957,51.6740806],[5.0516781,51.6739003],[5.0517309,51.6738211],[5.0518186,51.6736899],[5.0518291,51.6736923],[5.0519721,51.6734484],[5.0520493,51.6734139],[5.0522217,51.6730689],[5.0527123,51.6729008],[5.0527238,51.6728969],[5.052748,51.6728886],[5.052744,51.6728842],[5.0529879,51.6728024],[5.0530154,51.6727933],[5.0537017,51.672549],[5.0537141,51.6725446],[5.0540326,51.67246],[5.0544748,51.6723822],[5.0544902,51.6723797],[5.0545052,51.6723772],[5.0546965,51.6723454],[5.0547029,51.6723444],[5.054745,51.6723374],[5.0548593,51.6723186],[5.0550585,51.6722917],[5.0553015,51.6722637],[5.0557886,51.6721776],[5.0561294,51.6721174],[5.0561873,51.6721042],[5.0562687,51.6720857],[5.0562806,51.672083],[5.0563826,51.672059],[5.056385,51.6720584],[5.0563952,51.672056],[5.0564575,51.6720414],[5.0565896,51.6720105],[5.0566995,51.6719888],[5.0567481,51.6719466],[5.0567605,51.6719174],[5.0567526,51.6718951],[5.0567171,51.6718393],[5.056663,51.6717847],[5.0568263,51.6717439],[5.0568123,51.6717889],[5.0568077,51.6718037],[5.0567934,51.6718492],[5.0568294,51.6718467],[5.056864,51.6719149],[5.0568825,51.6719378],[5.0568974,51.6719447],[5.0568991,51.6719523],[5.0569128,51.6719513],[5.0573609,51.6721457],[5.0574559,51.672183],[5.0575428,51.6722215],[5.0575812,51.6720222],[5.0576256,51.671792],[5.0576332,51.6717916],[5.0578206,51.6717866],[5.057855,51.6717857],[5.0580748,51.67178],[5.0581988,51.6717453],[5.058394,51.6716841],[5.0583938,51.6716674],[5.0585348,51.6716625],[5.0586323,51.671659],[5.0586379,51.6716145],[5.0586664,51.6716131],[5.0588222,51.6716052],[5.0590452,51.6715826],[5.0590603,51.6714815],[5.0592458,51.6714728],[5.059496,51.6714617],[5.0596136,51.6714563],[5.0599035,51.6714429],[5.0599224,51.6712998],[5.0600586,51.6712634],[5.0602436,51.6712141],[5.0603572,51.6711838],[5.0606215,51.6711132],[5.0610005,51.6711064],[5.0630499,51.6710693],[5.0639847,51.671051],[5.0648367,51.6710343],[5.0658937,51.6710127],[5.06657,51.6709989],[5.0672458,51.6709827],[5.0675526,51.6709665],[5.0684281,51.6709195],[5.0684945,51.6709162],[5.0686747,51.6709075],[5.0687511,51.6709038],[5.0688595,51.6708986],[5.0691697,51.6708838],[5.069467,51.6708696],[5.0698492,51.6708506],[5.0700407,51.6708407],[5.0700664,51.670839],[5.0703459,51.6708323],[5.0704454,51.670826],[5.0711124,51.6707997],[5.0713227,51.6707914],[5.0714445,51.6707866],[5.072043,51.6707632],[5.0720791,51.6707648],[5.0731438,51.6708219],[5.0734756,51.6708325],[5.0740911,51.6708956],[5.0745299,51.670938],[5.0752359,51.6710004],[5.0760499,51.671073],[5.0760625,51.6710741],[5.077515,51.6711934],[5.0781555,51.67124],[5.078196,51.6712407],[5.0784048,51.6712499],[5.0784092,51.6712502],[5.0784606,51.6712528],[5.078469,51.6712532],[5.080265,51.6713892],[5.0801754,51.6716554],[5.0802446,51.6716807],[5.0812828,51.6720307],[5.0818813,51.6722526],[5.08261,51.6725231],[5.0836122,51.6729086],[5.0842567,51.6731565],[5.0851885,51.6734581],[5.0854386,51.6735407],[5.0864958,51.6738931],[5.086497,51.6738936],[5.0865549,51.6739157],[5.0875772,51.6743063],[5.0883419,51.6745545],[5.088909,51.6747406],[5.0892627,51.6748306],[5.0894446,51.6748398],[5.0896201,51.6747864],[5.0897422,51.6747522],[5.0897552,51.6747486],[5.0900531,51.6747095],[5.0900916,51.6747045],[5.0905197,51.6747563],[5.0909337,51.6748055],[5.0913461,51.6748187],[5.0914211,51.6748124],[5.0919244,51.6746751],[5.0924754,51.6745025],[5.092765,51.6744044],[5.0929126,51.6743705],[5.0930556,51.6743621],[5.093575,51.6744034],[5.0941829,51.6744526],[5.0946932,51.674536],[5.0949979,51.6745854],[5.0954015,51.6747226],[5.0959602,51.674916],[5.0964685,51.6750942],[5.0967218,51.6751789],[5.0972792,51.6753943],[5.0977011,51.675589],[5.0980508,51.6757493],[5.0981632,51.6758009],[5.0984606,51.6759337],[5.0986239,51.6760361],[5.0990315,51.6762147],[5.0992377,51.6762892],[5.0996665,51.67644],[5.0999514,51.6765424],[5.1003129,51.6766219],[5.1006254,51.6766841],[5.1012391,51.676795],[5.1015094,51.6768347],[5.1015483,51.6768404],[5.1017311,51.6769063],[5.1018968,51.6770406],[5.1025408,51.6770794],[5.1031523,51.6771177],[5.1031784,51.6771194],[5.1033362,51.6771293],[5.1038036,51.6771572],[5.1044453,51.6771995],[5.1050387,51.6772375],[5.1064932,51.6773278],[5.1063499,51.6784591],[5.1061368,51.6801409],[5.1058391,51.6825113],[5.1057837,51.682952],[5.1057458,51.6832537],[5.1056584,51.6839353],[5.1056247,51.6841981],[5.1054678,51.6854219],[5.1053854,51.6860644],[5.1052848,51.6868601],[5.1052109,51.6874449],[5.1050759,51.6885128],[5.1049842,51.6892384],[5.1049526,51.6894881],[5.1049286,51.6896779],[5.1049275,51.6896873],[5.1048833,51.6900367],[5.104749,51.6910916],[5.1047228,51.6913177],[5.104651,51.6919378],[5.1046446,51.691993],[5.1046036,51.6923479],[5.1044899,51.6932442],[5.104489,51.6932513],[5.1044686,51.6933744],[5.1042451,51.6947226],[5.1042024,51.6949837],[5.1041871,51.6950777],[5.1041625,51.695228],[5.1039883,51.6964305],[5.1037751,51.697848],[5.1037708,51.6978749],[5.1037518,51.6979932],[5.1035707,51.6991168],[5.1034878,51.6996332],[5.1034473,51.6999015],[5.1034023,51.7001987],[5.1032929,51.7009231],[5.10324,51.7012728],[5.1032302,51.7013378],[5.1032261,51.7013649],[5.1030869,51.7022632],[5.1030528,51.7024838],[5.1045802,51.7026813],[5.1087185,51.7032162],[5.1089179,51.7032419],[5.1115061,51.7035764],[5.1113528,51.7038339],[5.111263,51.7039662],[5.1112265,51.7040064],[5.1111911,51.7041193],[5.1110274,51.7043413],[5.1107726,51.7047511],[5.1107342,51.7048122],[5.1107057,51.7048983],[5.1107054,51.7048992],[5.1106788,51.7049795],[5.110565,51.7051791],[5.1104627,51.7053235],[5.1104401,51.7054344],[5.1104367,51.7054514],[5.1104387,51.7056067],[5.1104415,51.7057729],[5.1104138,51.7058481],[5.1104048,51.7058616],[5.1103752,51.7059061],[5.1101572,51.7060661],[5.1100968,51.7061254],[5.1100428,51.7061784],[5.1100019,51.7062343],[5.1100041,51.7063601],[5.1100257,51.706446],[5.1101116,51.7065783],[5.1101332,51.706788],[5.1100985,51.7068864],[5.1100196,51.7070203],[5.1099377,51.7071431],[5.1096156,51.7077804],[5.1095961,51.7078139],[5.109589,51.7079365],[5.1095429,51.7080384],[5.1093733,51.7082645],[5.109129,51.7085765],[5.1089787,51.7087306],[5.1087205,51.7090327],[5.1085136,51.7092408],[5.1082008,51.709563],[5.1079295,51.7097647],[5.1078059,51.7098699],[5.1077281,51.7099008],[5.1075491,51.7099398],[5.1074679,51.7099879],[5.1074219,51.7101416],[5.1074604,51.7102007],[5.1074739,51.7103225],[5.1073575,51.7103866],[5.1070308,51.7106356],[5.1069069,51.7108125],[5.1068547,51.7108611],[5.1066356,51.7107656],[5.1064701,51.7107366],[5.1062598,51.7107384],[5.1061811,51.7107539],[5.1055971,51.7109019],[5.1054212,51.710956],[5.1051435,51.7111333],[5.1050394,51.7112301],[5.1048222,51.7114608],[5.1045436,51.7117566],[5.1043889,51.7118465],[5.1042271,51.7119464],[5.1041349,51.7120499],[5.1040491,51.7121005],[5.1039364,51.7121416],[5.1030273,51.7125516],[5.1027269,51.712687],[5.1025355,51.7127347],[5.1024395,51.7127722],[5.1024356,51.7127738],[5.1023316,51.7128176],[5.1021628,51.7128263],[5.1020368,51.7129195],[5.1020158,51.7129351],[5.1018849,51.7129844],[5.1016909,51.7131303],[5.1016014,51.7132053],[5.1012327,51.7138262],[5.1011722,51.713928],[5.100848,51.7141812],[5.1006678,51.714374],[5.1006441,51.7143994],[5.1005464,51.714504],[5.100213,51.7147838],[5.1001149,51.7149576],[5.1000982,51.7149873],[5.1000018,51.7151583],[5.0999468,51.7152304],[5.0998414,51.7153693],[5.0996631,51.7156293],[5.0994624,51.7157782],[5.0993291,51.7158997],[5.0991767,51.7160386],[5.0988857,51.7164516],[5.0988802,51.7164597],[5.0990948,51.716594],[5.0990976,51.7165976],[5.0991141,51.7166192],[5.0987785,51.7167765],[5.0984191,51.7169976],[5.0981082,51.7171587],[5.0978125,51.7173584],[5.0978116,51.7173591],[5.0977846,51.7173809],[5.0976596,51.7174816],[5.0976103,51.7175217],[5.0975412,51.7175779],[5.0973365,51.717571],[5.0971835,51.7175563],[5.0967205,51.7175447],[5.0965163,51.7176488],[5.096114,51.7179867],[5.0960048,51.7180726],[5.0957491,51.7182721],[5.0954806,51.7183481],[5.0952216,51.7183791],[5.0951079,51.7183593],[5.0950891,51.718356],[5.0944887,51.7182515],[5.0943702,51.7182541],[5.0941883,51.7182933],[5.0940518,51.7183775],[5.0939653,51.7184777],[5.0939027,51.7185449],[5.093825,51.7186153],[5.0937472,51.7186856],[5.0931571,51.7192049],[5.0904657,51.7193143],[5.0904133,51.719315],[5.0902472,51.7193471],[5.0896757,51.7194573],[5.0894601,51.7194985],[5.0882856,51.7197228],[5.0882801,51.7197245],[5.0872662,51.7200485],[5.0859498,51.7204666],[5.0859422,51.720469],[5.0851661,51.7207161],[5.084888,51.7207681],[5.0846179,51.7208187],[5.0840824,51.720918],[5.0838936,51.720914],[5.0835398,51.7209065],[5.0834427,51.7209786],[5.0833416,51.7210614],[5.0832777,51.7211137],[5.0829723,51.7213637],[5.0829468,51.7213846],[5.0826828,51.7216007],[5.0825014,51.721747],[5.0817602,51.7223444],[5.0817395,51.722333],[5.0815822,51.7222341],[5.0808462,51.7218862],[5.0808175,51.7218707],[5.0806551,51.7217829],[5.080013,51.7214384],[5.0785484,51.7206714],[5.077598,51.7201851],[5.0769499,51.719863],[5.0763166,51.7195485],[5.0750583,51.7188771],[5.0730057,51.717986],[5.0716802,51.7173963],[5.0710043,51.7171107],[5.0692841,51.7163619],[5.0688513,51.7161743],[5.0679024,51.7157631],[5.0669447,51.7153927],[5.0656443,51.7148879],[5.0645115,51.7144937],[5.0639141,51.7143039],[5.0632279,51.7140858],[5.0624566,51.7138429],[5.0614161,51.713553],[5.0600392,51.7131686],[5.0593911,51.7130149],[5.0578735,51.7126636],[5.0575542,51.7125953],[5.0567237,51.712419],[5.05543,51.712147],[5.0545849,51.7119765],[5.05428,51.7119146],[5.0542318,51.7119036],[5.0542116,51.7119007],[5.0536298,51.7118178],[5.0529406,51.7117359],[5.0523514,51.7116615],[5.0510013,51.7115061],[5.0501306,51.711407],[5.0489765,51.7113069],[5.0472877,51.7111496],[5.0464385,51.7110871],[5.0449881,51.710997],[5.0447048,51.7109851],[5.0417607,51.7108827],[5.0399511,51.7108468],[5.0384737,51.7108175],[5.0359059,51.7108134],[5.0341681,51.7108427],[5.0327925,51.7108631],[5.0303877,51.7109342],[5.029588,51.7109603],[5.0287705,51.7110006],[5.0276543,51.7110613]]]}},{"type":"Feature","properties":{"name":"Kaatsheuvel","source":"OpenStreetMap/Nominatim","osm":"relation/2722767"},"geometry":{"type":"Polygon","coordinates":[[[4.9872621,51.6545205],[4.987458,51.6539478],[4.9875499,51.6536877],[4.9875665,51.6536354],[4.9876307,51.6534654],[4.9876452,51.6534251],[4.987735,51.6531795],[4.9877911,51.6530231],[4.9879249,51.6526505],[4.9881664,51.6520014],[4.9883274,51.6515557],[4.9884735,51.6511513],[4.9885001,51.6510778],[4.9886146,51.6507569],[4.9887388,51.6504088],[4.9887578,51.6503593],[4.9889871,51.6497758],[4.9890811,51.649523],[4.9891246,51.6494059],[4.989249,51.649079],[4.9892994,51.6489466],[4.9893594,51.6487013],[4.9893695,51.6486601],[4.9893877,51.6486633],[4.9894663,51.6484831],[4.9895498,51.6482226],[4.9896767,51.6478316],[4.9897034,51.6477579],[4.9897999,51.6475243],[4.9901214,51.6466333],[4.9902876,51.6461831],[4.9905371,51.6454965],[4.9905788,51.6453849],[4.9908023,51.6447685],[4.9909463,51.6443724],[4.9912214,51.6436282],[4.9914049,51.6431198],[4.9916883,51.6423424],[4.9917507,51.6421738],[4.9919152,51.64173],[4.9921978,51.6409824],[4.9922891,51.6407365],[5.0004607,51.6408081],[5.0004556,51.6413168],[5.0190805,51.6420162],[5.0191844,51.6426739],[5.0231805,51.642723],[5.0233797,51.6410946],[5.0299252,51.6416215],[5.035075,51.6410892],[5.0347407,51.642762],[5.0392835,51.6432182],[5.0406489,51.6425658],[5.0519122,51.6423707],[5.0600397,51.6415183],[5.0642234,51.6420809],[5.0671393,51.6426793],[5.0706547,51.6451712],[5.0721604,51.6452675],[5.072513,51.6448458],[5.0766158,51.6463564],[5.0787493,51.6460832],[5.0818131,51.6466303],[5.0851062,51.6494696],[5.0888759,51.6513846],[5.0942301,51.6471638],[5.094633,51.6473322],[5.0974256,51.6484995],[5.1030478,51.6532937],[5.1023707,51.6571269],[5.1018609,51.6600128],[5.10178,51.6604709],[5.1016256,51.6613445],[5.1016061,51.6616358],[5.1015992,51.6617399],[5.1015993,51.6618114],[5.1016007,51.6627962],[5.1016193,51.6628822],[5.10163,51.662932],[5.101703,51.6633591],[5.1017806,51.6637858],[5.1018448,51.6641612],[5.1019329,51.6646489],[5.1020201,51.6651215],[5.1021008,51.6655702],[5.1021879,51.6660422],[5.1022344,51.6662994],[5.1023476,51.6666173],[5.1025205,51.6670983],[5.1025767,51.6674067],[5.1026653,51.6680008],[5.102718,51.6683497],[5.1023302,51.6689461],[5.1021309,51.6694604],[5.1020125,51.6697656],[5.1019943,51.6698373],[5.1018858,51.6702588],[5.1017682,51.6707113],[5.1020882,51.6711445],[5.1023115,51.671943],[5.1017532,51.6722346],[5.1015984,51.6724192],[5.1015813,51.6724422],[5.1016039,51.672465],[5.1041067,51.6749856],[5.1028871,51.676216],[5.1020148,51.6766032],[5.1015196,51.67683],[5.1015094,51.6768347],[5.1012391,51.676795],[5.1006254,51.6766841],[5.1003129,51.6766219],[5.0999514,51.6765424],[5.0996665,51.67644],[5.0992377,51.6762892],[5.0990315,51.6762147],[5.0986239,51.6760361],[5.0984606,51.6759337],[5.0981632,51.6758009],[5.0980508,51.6757493],[5.0977011,51.675589],[5.0972792,51.6753943],[5.0967218,51.6751789],[5.0964685,51.6750942],[5.0959602,51.674916],[5.0954015,51.6747226],[5.0949979,51.6745854],[5.0946932,51.674536],[5.0941829,51.6744526],[5.093575,51.6744034],[5.0930556,51.6743621],[5.0929126,51.6743705],[5.092765,51.6744044],[5.0924754,51.6745025],[5.0919244,51.6746751],[5.0914211,51.6748124],[5.0913461,51.6748187],[5.0909337,51.6748055],[5.0905197,51.6747563],[5.0900916,51.6747045],[5.0900531,51.6747095],[5.0897552,51.6747486],[5.0897422,51.6747522],[5.0896201,51.6747864],[5.0894446,51.6748398],[5.0892627,51.6748306],[5.088909,51.6747406],[5.0883419,51.6745545],[5.0875772,51.6743063],[5.0865549,51.6739157],[5.086497,51.6738936],[5.0864958,51.6738931],[5.0854386,51.6735407],[5.0851885,51.6734581],[5.0842567,51.6731565],[5.0836122,51.6729086],[5.08261,51.6725231],[5.0818813,51.6722526],[5.0812828,51.6720307],[5.0802446,51.6716807],[5.0801754,51.6716554],[5.080265,51.6713892],[5.078469,51.6712532],[5.0784606,51.6712528],[5.0784092,51.6712502],[5.0784048,51.6712499],[5.078196,51.6712407],[5.0781555,51.67124],[5.077515,51.6711934],[5.0760625,51.6710741],[5.0760499,51.671073],[5.0752359,51.6710004],[5.0745299,51.670938],[5.0740911,51.6708956],[5.0734756,51.6708325],[5.0731438,51.6708219],[5.0720791,51.6707648],[5.072043,51.6707632],[5.0714445,51.6707866],[5.0713227,51.6707914],[5.0711124,51.6707997],[5.0704454,51.670826],[5.0703459,51.6708323],[5.0700664,51.670839],[5.0700407,51.6708407],[5.0698492,51.6708506],[5.069467,51.6708696],[5.0691697,51.6708838],[5.0688595,51.6708986],[5.0687511,51.6709038],[5.0686747,51.6709075],[5.0684945,51.6709162],[5.0684281,51.6709195],[5.0675526,51.6709665],[5.0672458,51.6709827],[5.06657,51.6709989],[5.0658937,51.6710127],[5.0648367,51.6710343],[5.0639847,51.671051],[5.0630499,51.6710693],[5.0610005,51.6711064],[5.0606215,51.6711132],[5.0606184,51.6710174],[5.0606449,51.6708292],[5.0606504,51.6707905],[5.0606519,51.6707805],[5.0606822,51.6705758],[5.0606831,51.6705691],[5.0607712,51.6699381],[5.0607811,51.6698628],[5.0608564,51.6693526],[5.0608698,51.6692613],[5.0609122,51.6689859],[5.0609927,51.668436],[5.0610135,51.6682903],[5.0607773,51.668294],[5.0605488,51.6682977],[5.059659,51.668305],[5.0591048,51.6683069],[5.0579705,51.6683162],[5.0580452,51.6680842],[5.0580958,51.6678971],[5.0580213,51.667896],[5.0580942,51.6676253],[5.0581485,51.6674202],[5.058225,51.6671495],[5.0582956,51.6668955],[5.0583539,51.6666508],[5.0584285,51.6663405],[5.0584537,51.6662492],[5.0585265,51.6659911],[5.0585949,51.6657438],[5.0586443,51.6655221],[5.058663,51.6654348],[5.0586787,51.6653696],[5.0586825,51.6653377],[5.0587051,51.6651212],[5.0587268,51.6649246],[5.058735,51.6647937],[5.0587469,51.6645548],[5.0587542,51.6644468],[5.0587536,51.6643302],[5.0587526,51.6640235],[5.0587525,51.6639832],[5.0587403,51.6637735],[5.0587219,51.6635277],[5.0587073,51.6634403],[5.0586736,51.6632085],[5.0586501,51.6630603],[5.0586068,51.6627506],[5.058584,51.6626029],[5.0585606,51.6624408],[5.0585216,51.6621396],[5.0584462,51.6618676],[5.0584036,51.6617269],[5.0577239,51.6617229],[5.0571579,51.6617136],[5.0570439,51.6617109],[5.0561639,51.661698],[5.0553556,51.6616892],[5.0553036,51.6616877],[5.0548288,51.6616807],[5.0547812,51.6616802],[5.0546956,51.6616792],[5.0545118,51.6616759],[5.0545053,51.6616758],[5.0543621,51.6616726],[5.0542869,51.6616732],[5.0539446,51.6616657],[5.0538184,51.6616561],[5.0532308,51.661651],[5.0529433,51.6616449],[5.0527631,51.6616431],[5.0524135,51.6616398],[5.0523501,51.6616393],[5.0517832,51.6616357],[5.0516592,51.661635],[5.0514875,51.6616359],[5.0514028,51.6616364],[5.051322,51.6616369],[5.0512361,51.6616367],[5.0511203,51.6616365],[5.0510014,51.6616363],[5.0508877,51.6616346],[5.0507434,51.6616313],[5.0506248,51.6616281],[5.0505328,51.6616256],[5.0504436,51.6616207],[5.050239,51.6616096],[5.0500402,51.6616069],[5.0497442,51.6616066],[5.0493508,51.6616104],[5.0491775,51.6616234],[5.0490931,51.6616414],[5.0489167,51.6616984],[5.0486999,51.6617579],[5.0483658,51.6618062],[5.0483085,51.6618168],[5.0482004,51.6618483],[5.0473678,51.6620816],[5.0473323,51.6624222],[5.0473037,51.6627009],[5.0472466,51.663251],[5.0469323,51.6632323],[5.0464714,51.6632055],[5.046468,51.6632053],[5.0461594,51.6631887],[5.0452646,51.6631275],[5.045239,51.6631313],[5.0452396,51.6631258],[5.0452769,51.6627719],[5.0452483,51.662739],[5.0452857,51.6626939],[5.0444377,51.6629242],[5.0444362,51.6629246],[5.0443751,51.6629417],[5.0443464,51.6629498],[5.0443114,51.6629596],[5.0439838,51.6630489],[5.0436985,51.6631264],[5.0435892,51.6631565],[5.0427143,51.6633955],[5.0422846,51.6635183],[5.0420686,51.6635771],[5.0417336,51.663667],[5.0415588,51.6637171],[5.0415136,51.6637239],[5.04145,51.663628],[5.0414236,51.6636348],[5.0411779,51.6636987],[5.0406741,51.6638359],[5.0403108,51.6639354],[5.0398371,51.6640651],[5.0394767,51.6641602],[5.0392808,51.6642143],[5.0388397,51.6643323],[5.038215,51.6645023],[5.0378325,51.664604],[5.0377482,51.6646258],[5.0371498,51.6647899],[5.0367058,51.6649116],[5.0352127,51.665323],[5.0342309,51.6655951],[5.0337434,51.6657265],[5.0330751,51.6659072],[5.0321221,51.6661706],[5.0317049,51.6662888],[5.0313681,51.6663847],[5.0312494,51.6664176],[5.0309902,51.6664974],[5.0308774,51.6665324],[5.0306443,51.6665921],[5.0303316,51.6666734],[5.0300228,51.6667521],[5.0296689,51.6668429],[5.0293276,51.6669301],[5.0290103,51.6670115],[5.0286934,51.6670921],[5.0283307,51.6671851],[5.027954,51.667282],[5.0275665,51.667381],[5.0271354,51.6674929],[5.0268968,51.6675516],[5.0267352,51.6675951],[5.0259348,51.6677767],[5.0258261,51.6678014],[5.0256409,51.6678434],[5.0255978,51.6678532],[5.0250013,51.6680204],[5.0248918,51.6680492],[5.0241198,51.6682523],[5.0237402,51.6683473],[5.0227886,51.6685849],[5.0221246,51.668751],[5.021382,51.6689391],[5.0211573,51.668996],[5.0206849,51.6691157],[5.0202398,51.6692267],[5.020218,51.6692323],[5.020172,51.6692443],[5.0199292,51.6693048],[5.0198376,51.6693279],[5.0198321,51.6693293],[5.0198235,51.6693315],[5.0198193,51.6693326],[5.0197002,51.6693626],[5.0191048,51.6695127],[5.0190137,51.6695393],[5.018838,51.6695839],[5.0187849,51.6695973],[5.0185246,51.6696633],[5.0185285,51.6697029],[5.0182923,51.6697416],[5.0181219,51.669796],[5.0179522,51.669836],[5.0174869,51.6699505],[5.0172027,51.6700198],[5.0169952,51.67007],[5.0167992,51.6701171],[5.0165833,51.6701716],[5.0164306,51.6702076],[5.0162308,51.6702569],[5.0160259,51.670307],[5.0157449,51.6703755],[5.0156863,51.6703891],[5.0155372,51.6704237],[5.0153498,51.6704706],[5.0149312,51.6705724],[5.0147437,51.6706193],[5.0143192,51.6707246],[5.0142548,51.6707396],[5.0140294,51.6707947],[5.0138762,51.6708342],[5.0138545,51.6708398],[5.013672,51.6708869],[5.0133654,51.6709621],[5.0133324,51.6709702],[5.013025,51.6710456],[5.0130215,51.6710465],[5.0127339,51.6711188],[5.0127321,51.6711192],[5.0126674,51.6711356],[5.0124803,51.6711828],[5.0124508,51.6711894],[5.0123067,51.6712213],[5.0121145,51.6712695],[5.0119526,51.6713089],[5.0117067,51.671374],[5.0113405,51.671471],[5.0109873,51.6715646],[5.0102167,51.6717569],[5.0094658,51.6719343],[5.0093232,51.6719673],[5.0088192,51.6720921],[5.0082458,51.6722336],[5.0078267,51.6723398],[5.0074679,51.6724304],[5.0066687,51.6726354],[5.0056702,51.6728773],[5.0050418,51.6730422],[5.0044641,51.6731971],[5.003877,51.6733569],[5.0033864,51.6734887],[5.0031367,51.6735558],[5.0029054,51.6736145],[5.0026103,51.6736952],[5.0017393,51.6739164],[5.0008954,51.67413],[4.9989774,51.6746085],[4.9965111,51.6751929],[4.9956305,51.675403],[4.9937564,51.675851],[4.9922463,51.6762509],[4.9922364,51.6762161],[4.9919736,51.6750921],[4.9919726,51.6750875],[4.9917365,51.6740794],[4.9917071,51.6739522],[4.9914978,51.6730463],[4.9914879,51.6730036],[4.9914867,51.6729984],[4.9914747,51.6729528],[4.9914732,51.6729472],[4.9910853,51.6712835],[4.9906994,51.6696172],[4.9906984,51.6696127],[4.990687,51.6695545],[4.9906845,51.6695416],[4.9905907,51.6691358],[4.9904364,51.668468],[4.9904346,51.6684603],[4.9903361,51.6680389],[4.9900533,51.6668086],[4.989999,51.6665783],[4.9899977,51.6665728],[4.9899825,51.6665106],[4.9899817,51.6665073],[4.9899568,51.6663909],[4.989954,51.6663774],[4.9897293,51.6654176],[4.9897284,51.6654139],[4.9896668,51.665145],[4.9896595,51.6651082],[4.9894701,51.6642685],[4.9892662,51.6633845],[4.9890682,51.6625436],[4.9889975,51.6623562],[4.988993,51.662286],[4.9888149,51.661434],[4.9885604,51.6603314],[4.9885501,51.6602895],[4.9885303,51.6602088],[4.9885134,51.6601401],[4.988295,51.6592513],[4.988251,51.659072],[4.9882491,51.6590636],[4.9882037,51.6588592],[4.9881949,51.6588197],[4.988056,51.6581946],[4.9879338,51.6576614],[4.987896,51.6574964],[4.9878048,51.6570982],[4.9877642,51.6569209],[4.9877067,51.6566677],[4.9876838,51.6565743],[4.9876311,51.6563522],[4.987548,51.6560069],[4.9875419,51.6559773],[4.9875059,51.655807],[4.9874563,51.6555759],[4.9874508,51.6555525],[4.9874447,51.6555249],[4.9874349,51.6554814],[4.9874054,51.6553505],[4.9873598,51.6551485],[4.9872928,51.6548521],[4.987275,51.6547757],[4.9872692,51.6546537],[4.9872669,51.6546089],[4.9872621,51.6545205]]]}},{"type":"Feature","properties":{"name":"De Moer","source":"OpenStreetMap/Nominatim","osm":"relation/2722766"},"geometry":{"type":"Polygon","coordinates":[[[4.9922891,51.6407365],[4.9923577,51.6405515],[4.9924977,51.6401745],[4.992719,51.6395653],[4.9929599,51.6389168],[4.9931432,51.6384337],[4.9935459,51.6372713],[4.9938342,51.6364826],[4.9941227,51.6356964],[4.9942065,51.6354661],[4.994219,51.6354319],[4.9942273,51.6354089],[4.9943019,51.635204],[4.994565,51.6344809],[4.9949075,51.6335305],[4.9950327,51.6331962],[4.9952699,51.6325628],[4.995373,51.632247],[4.9956232,51.6315265],[4.995657,51.6314313],[4.9956764,51.6313737],[4.995813,51.6310187],[4.9960813,51.6302618],[4.9963873,51.6294171],[4.9967688,51.6283576],[4.9970941,51.6274454],[4.9971745,51.6272285],[4.9972674,51.6269752],[4.9976249,51.6259999],[4.9978998,51.6252575],[4.9981454,51.6245729],[4.9982818,51.6242185],[4.9983659,51.6239997],[4.9985773,51.6235668],[4.9985621,51.6235412],[4.9985642,51.6235364],[4.9985732,51.6235121],[4.9991161,51.6220475],[4.9994933,51.6210308],[5.0000537,51.6195065],[5.0005918,51.6180463],[5.0010682,51.6167619],[5.0011288,51.6165701],[5.0011513,51.6164988],[5.0016106,51.6152408],[5.0023923,51.6131001],[5.0023986,51.6130829],[5.0024192,51.6130257],[5.0030704,51.6112236],[5.0032416,51.6107519],[5.0034773,51.6101026],[5.0036086,51.6097413],[5.0038948,51.6089555],[5.0039302,51.6088583],[5.0042065,51.6080866],[5.0042287,51.6079938],[5.0042648,51.6078963],[5.0044921,51.6078868],[5.0045136,51.6078859],[5.0054952,51.6078458],[5.0072794,51.6077729],[5.0118626,51.6075859],[5.0118699,51.6075856],[5.0134096,51.6075227],[5.0156017,51.6074478],[5.0172328,51.6074205],[5.0180403,51.6073107],[5.0182377,51.6072839],[5.0183067,51.6072745],[5.0189955,51.6071809],[5.0194675,51.6071369],[5.021431,51.606954],[5.0220307,51.606969],[5.0225721,51.6069825],[5.0241933,51.6069748],[5.0244795,51.6069645],[5.0245439,51.6069622],[5.0256147,51.6069234],[5.0263113,51.6068981],[5.0279247,51.6068397],[5.0286266,51.6068252],[5.0291572,51.606857],[5.0298462,51.6068196],[5.0300439,51.6068077],[5.031202,51.6067118],[5.0318894,51.6067011],[5.0323255,51.6066749],[5.0341561,51.6065972],[5.0373678,51.6064608],[5.037491,51.6064563],[5.0375881,51.6064525],[5.0396834,51.6063715],[5.0399251,51.6063621],[5.0407518,51.6062742],[5.0411551,51.6062313],[5.0411908,51.6062275],[5.0413456,51.606211],[5.0410702,51.6075999],[5.0380814,51.6101726],[5.0376628,51.6118755],[5.0406125,51.6131786],[5.0412487,51.6149423],[5.0439957,51.6163526],[5.0391441,51.615859],[5.0383672,51.6184279],[5.0411125,51.6195073],[5.0413683,51.6220793],[5.0459955,51.6231062],[5.0456897,51.6241917],[5.0334346,51.6241982],[5.0270498,51.6306068],[5.0226891,51.6334216],[5.0346787,51.6350325],[5.0367225,51.6353071],[5.035075,51.6410892],[5.0299252,51.6416215],[5.0233797,51.6410946],[5.0231805,51.642723],[5.0191844,51.6426739],[5.0190805,51.6420162],[5.0004556,51.6413168],[5.0004607,51.6408081],[4.9922891,51.6407365]]]}},{"type":"Feature","properties":{"name":"Sprang-Capelle","source":"OpenStreetMap/Nominatim","osm":"relation/161402"},"geometry":{"type":"Polygon","coordinates":[[[4.9643982,51.6881148],[4.9644025,51.6880704],[4.9644224,51.6878709],[4.9644267,51.6878208],[4.9644381,51.6876901],[4.9644391,51.6876786],[4.9644446,51.6875454],[4.9644537,51.687367],[4.9644608,51.6872271],[4.964472,51.6870216],[4.964473,51.687004],[4.9644556,51.6870037],[4.9644605,51.6866096],[4.9644627,51.686417],[4.9644998,51.6860827],[4.9645099,51.6859785],[4.9645147,51.6859036],[4.9645265,51.6857177],[4.9645466,51.6854444],[4.96455,51.6852248],[4.9645508,51.6851834],[4.9645525,51.6850952],[4.9645693,51.6848309],[4.9645819,51.6846655],[4.9646081,51.6843626],[4.9646246,51.6841732],[4.9646295,51.6836857],[4.9646615,51.6831663],[4.9646597,51.682963],[4.9646576,51.6828532],[4.9646714,51.6827023],[4.9646812,51.6825688],[4.9647089,51.6821919],[4.9647257,51.681863],[4.9647273,51.6818363],[4.9647395,51.6816275],[4.9647221,51.6816273],[4.9647468,51.6812154],[4.9647487,51.6811833],[4.9647797,51.6809499],[4.9647886,51.680889],[4.9648024,51.6807937],[4.9648531,51.6805767],[4.9648592,51.6804959],[4.9648635,51.6804401],[4.9649044,51.6799999],[4.9648808,51.6799159],[4.964876,51.6798988],[4.9648858,51.6797912],[4.9648983,51.6796544],[4.9649033,51.6795989],[4.9662591,51.6788241],[4.9664032,51.6787414],[4.9673484,51.6780434],[4.9674717,51.6779523],[4.9680185,51.6775875],[4.9682941,51.6773943],[4.9684036,51.6773198],[4.9686564,51.6771551],[4.9692974,51.6767208],[4.9702794,51.676058],[4.9708406,51.6756724],[4.9710983,51.6754954],[4.9711206,51.6754309],[4.9711879,51.6752172],[4.9712507,51.6750222],[4.971494,51.6742522],[4.9715655,51.6740279],[4.971697,51.6736156],[4.9721566,51.6737301],[4.9722905,51.6723458],[4.9724844,51.6723545],[4.9725101,51.6720853],[4.9725277,51.6720292],[4.972594,51.6713717],[4.9726009,51.6712194],[4.9726409,51.6704658],[4.9726728,51.6699408],[4.9726904,51.6696574],[4.972692,51.6696287],[4.9727242,51.6690739],[4.9727439,51.668734],[4.9727824,51.6687351],[4.9728318,51.6679849],[4.9728209,51.6678485],[4.9728041,51.6677715],[4.9728048,51.6677583],[4.9728529,51.6669092],[4.9728764,51.6665073],[4.9729105,51.6664887],[4.9729267,51.6663217],[4.9729594,51.6663219],[4.9729829,51.666107],[4.9729911,51.665984],[4.9740174,51.6651892],[4.9740176,51.6651208],[4.9740501,51.6640479],[4.9744908,51.6629835],[4.9747057,51.6622804],[4.9747771,51.6617522],[4.9747929,51.6616336],[4.9747958,51.6615907],[4.9748386,51.6606425],[4.9748216,51.6600927],[4.9748178,51.6599705],[4.9748082,51.6595814],[4.9748629,51.6594508],[4.9749699,51.6593823],[4.9751043,51.6593467],[4.9754027,51.6593318],[4.9755327,51.6593339],[4.9757212,51.6593413],[4.9757921,51.6593415],[4.9775686,51.6593679],[4.9782963,51.6593611],[4.9789886,51.6593466],[4.9789531,51.6576767],[4.9789519,51.6575723],[4.9789162,51.6558269],[4.9789113,51.6557489],[4.9789111,51.6557394],[4.9788864,51.6544574],[4.9788864,51.6544534],[4.9788733,51.6537767],[4.9820955,51.6541274],[4.9822477,51.6540981],[4.9827936,51.654153],[4.9842686,51.6543001],[4.9862552,51.654506],[4.9864203,51.6545228],[4.9872669,51.6546089],[4.9872692,51.6546537],[4.987275,51.6547757],[4.9872928,51.6548521],[4.9873598,51.6551485],[4.9874054,51.6553505],[4.9874349,51.6554814],[4.9874447,51.6555249],[4.9874508,51.6555525],[4.9874563,51.6555759],[4.9875059,51.655807],[4.9875419,51.6559773],[4.987548,51.6560069],[4.9876311,51.6563522],[4.9876838,51.6565743],[4.9877067,51.6566677],[4.9877642,51.6569209],[4.9878048,51.6570982],[4.987896,51.6574964],[4.9879338,51.6576614],[4.988056,51.6581946],[4.9881949,51.6588197],[4.9882037,51.6588592],[4.9882491,51.6590636],[4.988251,51.659072],[4.988295,51.6592513],[4.9885134,51.6601401],[4.9885303,51.6602088],[4.9885501,51.6602895],[4.9885604,51.6603314],[4.9888149,51.661434],[4.988993,51.662286],[4.9889975,51.6623562],[4.9890682,51.6625436],[4.9892662,51.6633845],[4.9894701,51.6642685],[4.9896595,51.6651082],[4.9896668,51.665145],[4.9897284,51.6654139],[4.9897293,51.6654176],[4.989954,51.6663774],[4.9899568,51.6663909],[4.9899817,51.6665073],[4.9899825,51.6665106],[4.9899977,51.6665728],[4.989999,51.6665783],[4.9900533,51.6668086],[4.9903361,51.6680389],[4.9904346,51.6684603],[4.9904364,51.668468],[4.9905907,51.6691358],[4.9906845,51.6695416],[4.990687,51.6695545],[4.9906984,51.6696127],[4.9906994,51.6696172],[4.9910853,51.6712835],[4.9914732,51.6729472],[4.9914747,51.6729528],[4.9914867,51.6729984],[4.9914879,51.6730036],[4.9914978,51.6730463],[4.9917071,51.6739522],[4.9917365,51.6740794],[4.9919726,51.6750875],[4.9919736,51.6750921],[4.9922364,51.6762161],[4.9922463,51.6762509],[4.9937564,51.675851],[4.9956305,51.675403],[4.9965111,51.6751929],[4.9989774,51.6746085],[5.0008954,51.67413],[5.0017393,51.6739164],[5.0026103,51.6736952],[5.0029054,51.6736145],[5.0031367,51.6735558],[5.0033864,51.6734887],[5.003877,51.6733569],[5.0044641,51.6731971],[5.0050418,51.6730422],[5.0056702,51.6728773],[5.0066687,51.6726354],[5.0074679,51.6724304],[5.0078267,51.6723398],[5.0082458,51.6722336],[5.0088192,51.6720921],[5.0093232,51.6719673],[5.0094658,51.6719343],[5.0102167,51.6717569],[5.0109873,51.6715646],[5.0113405,51.671471],[5.0117067,51.671374],[5.0119526,51.6713089],[5.0121145,51.6712695],[5.0123067,51.6712213],[5.0124508,51.6711894],[5.0124803,51.6711828],[5.0126674,51.6711356],[5.0127321,51.6711192],[5.0127339,51.6711188],[5.0130215,51.6710465],[5.013025,51.6710456],[5.0133324,51.6709702],[5.0133654,51.6709621],[5.013672,51.6708869],[5.0138545,51.6708398],[5.0138762,51.6708342],[5.0140294,51.6707947],[5.0142548,51.6707396],[5.0143192,51.6707246],[5.0147437,51.6706193],[5.0149312,51.6705724],[5.0153498,51.6704706],[5.0155372,51.6704237],[5.0156863,51.6703891],[5.0157449,51.6703755],[5.0160259,51.670307],[5.0162308,51.6702569],[5.0164306,51.6702076],[5.0165833,51.6701716],[5.0167992,51.6701171],[5.0169952,51.67007],[5.0172027,51.6700198],[5.0174869,51.6699505],[5.0179522,51.669836],[5.0181219,51.669796],[5.0182923,51.6697416],[5.0185285,51.6697029],[5.0185246,51.6696633],[5.0187849,51.6695973],[5.018838,51.6695839],[5.0190137,51.6695393],[5.0191048,51.6695127],[5.0197002,51.6693626],[5.0198193,51.6693326],[5.0198235,51.6693315],[5.0198321,51.6693293],[5.0198376,51.6693279],[5.0199292,51.6693048],[5.020172,51.6692443],[5.020218,51.6692323],[5.0202398,51.6692267],[5.0206849,51.6691157],[5.0211573,51.668996],[5.021382,51.6689391],[5.0221246,51.668751],[5.0227886,51.6685849],[5.0237402,51.6683473],[5.0241198,51.6682523],[5.0248918,51.6680492],[5.0250013,51.6680204],[5.0255978,51.6678532],[5.0256409,51.6678434],[5.0258261,51.6678014],[5.0259348,51.6677767],[5.0267352,51.6675951],[5.0268968,51.6675516],[5.0271354,51.6674929],[5.0275665,51.667381],[5.027954,51.667282],[5.0283307,51.6671851],[5.0286934,51.6670921],[5.0290103,51.6670115],[5.0293276,51.6669301],[5.0296689,51.6668429],[5.0300228,51.6667521],[5.0303316,51.6666734],[5.0306443,51.6665921],[5.0308774,51.6665324],[5.0309902,51.6664974],[5.0312494,51.6664176],[5.0313681,51.6663847],[5.0317049,51.6662888],[5.0321221,51.6661706],[5.0330751,51.6659072],[5.0337434,51.6657265],[5.0342309,51.6655951],[5.0352127,51.665323],[5.0367058,51.6649116],[5.0371498,51.6647899],[5.0377482,51.6646258],[5.0378325,51.664604],[5.038215,51.6645023],[5.0388397,51.6643323],[5.0392808,51.6642143],[5.0394767,51.6641602],[5.0398371,51.6640651],[5.0403108,51.6639354],[5.0406741,51.6638359],[5.0411779,51.6636987],[5.0414236,51.6636348],[5.04145,51.663628],[5.0415136,51.6637239],[5.0415588,51.6637171],[5.0417336,51.663667],[5.0420686,51.6635771],[5.0422846,51.6635183],[5.0427143,51.6633955],[5.0435892,51.6631565],[5.0436985,51.6631264],[5.0439838,51.6630489],[5.0443114,51.6629596],[5.0443464,51.6629498],[5.0443751,51.6629417],[5.0444362,51.6629246],[5.0444377,51.6629242],[5.0452857,51.6626939],[5.0452483,51.662739],[5.0452769,51.6627719],[5.0452396,51.6631258],[5.045239,51.6631313],[5.0452646,51.6631275],[5.0461594,51.6631887],[5.046468,51.6632053],[5.0464714,51.6632055],[5.0469323,51.6632323],[5.0472466,51.663251],[5.0473037,51.6627009],[5.0473323,51.6624222],[5.0473678,51.6620816],[5.0482004,51.6618483],[5.0483085,51.6618168],[5.0483658,51.6618062],[5.0486999,51.6617579],[5.0489167,51.6616984],[5.0490931,51.6616414],[5.0491775,51.6616234],[5.0493508,51.6616104],[5.0497442,51.6616066],[5.0500402,51.6616069],[5.050239,51.6616096],[5.0504436,51.6616207],[5.0505328,51.6616256],[5.0506248,51.6616281],[5.0507434,51.6616313],[5.0508877,51.6616346],[5.0510014,51.6616363],[5.0511203,51.6616365],[5.0512361,51.6616367],[5.051322,51.6616369],[5.0514028,51.6616364],[5.0514875,51.6616359],[5.0516592,51.661635],[5.0517832,51.6616357],[5.0523501,51.6616393],[5.0524135,51.6616398],[5.0527631,51.6616431],[5.0529433,51.6616449],[5.0532308,51.661651],[5.0538184,51.6616561],[5.0539446,51.6616657],[5.0542869,51.6616732],[5.0543621,51.6616726],[5.0545053,51.6616758],[5.0545118,51.6616759],[5.0546956,51.6616792],[5.0547812,51.6616802],[5.0548288,51.6616807],[5.0553036,51.6616877],[5.0553556,51.6616892],[5.0561639,51.661698],[5.0570439,51.6617109],[5.0571579,51.6617136],[5.0577239,51.6617229],[5.0584036,51.6617269],[5.0584462,51.6618676],[5.0585216,51.6621396],[5.0585606,51.6624408],[5.058584,51.6626029],[5.0586068,51.6627506],[5.0586501,51.6630603],[5.0586736,51.6632085],[5.0587073,51.6634403],[5.0587219,51.6635277],[5.0587403,51.6637735],[5.0587525,51.6639832],[5.0587526,51.6640235],[5.0587536,51.6643302],[5.0587542,51.6644468],[5.0587469,51.6645548],[5.058735,51.6647937],[5.0587268,51.6649246],[5.0587051,51.6651212],[5.0586825,51.6653377],[5.0586787,51.6653696],[5.058663,51.6654348],[5.0586443,51.6655221],[5.0585949,51.6657438],[5.0585265,51.6659911],[5.0584537,51.6662492],[5.0584285,51.6663405],[5.0583539,51.6666508],[5.0582956,51.6668955],[5.058225,51.6671495],[5.0581485,51.6674202],[5.0580942,51.6676253],[5.0580213,51.667896],[5.0580958,51.6678971],[5.0580452,51.6680842],[5.0579705,51.6683162],[5.0591048,51.6683069],[5.059659,51.668305],[5.0605488,51.6682977],[5.0607773,51.668294],[5.0610135,51.6682903],[5.0609927,51.668436],[5.0609122,51.6689859],[5.0608698,51.6692613],[5.0608564,51.6693526],[5.0607811,51.6698628],[5.0607712,51.6699381],[5.0606831,51.6705691],[5.0606822,51.6705758],[5.0606519,51.6707805],[5.0606504,51.6707905],[5.0606449,51.6708292],[5.0606184,51.6710174],[5.0606215,51.6711132],[5.0603572,51.6711838],[5.0602436,51.6712141],[5.0600586,51.6712634],[5.0599224,51.6712998],[5.0599035,51.6714429],[5.0596136,51.6714563],[5.059496,51.6714617],[5.0592458,51.6714728],[5.0590603,51.6714815],[5.0590452,51.6715826],[5.0588222,51.6716052],[5.0586664,51.6716131],[5.0586379,51.6716145],[5.0586323,51.671659],[5.0585348,51.6716625],[5.0583938,51.6716674],[5.058394,51.6716841],[5.0581988,51.6717453],[5.0580748,51.67178],[5.057855,51.6717857],[5.0578206,51.6717866],[5.0576332,51.6717916],[5.0576256,51.671792],[5.0575812,51.6720222],[5.0575428,51.6722215],[5.0574559,51.672183],[5.0573609,51.6721457],[5.0569128,51.6719513],[5.0568991,51.6719523],[5.0568974,51.6719447],[5.0568825,51.6719378],[5.056864,51.6719149],[5.0568294,51.6718467],[5.0567934,51.6718492],[5.0568077,51.6718037],[5.0568123,51.6717889],[5.0568263,51.6717439],[5.056663,51.6717847],[5.0567171,51.6718393],[5.0567526,51.6718951],[5.0567605,51.6719174],[5.0567481,51.6719466],[5.0566995,51.6719888],[5.0565896,51.6720105],[5.0564575,51.6720414],[5.0563952,51.672056],[5.056385,51.6720584],[5.0563826,51.672059],[5.0562806,51.672083],[5.0562687,51.6720857],[5.0561873,51.6721042],[5.0561294,51.6721174],[5.0557886,51.6721776],[5.0553015,51.6722637],[5.0550585,51.6722917],[5.0548593,51.6723186],[5.054745,51.6723374],[5.0547029,51.6723444],[5.0546965,51.6723454],[5.0545052,51.6723772],[5.0544902,51.6723797],[5.0544748,51.6723822],[5.0540326,51.67246],[5.0537141,51.6725446],[5.0537017,51.672549],[5.0530154,51.6727933],[5.0529879,51.6728024],[5.052744,51.6728842],[5.052748,51.6728886],[5.0527238,51.6728969],[5.0527123,51.6729008],[5.0522217,51.6730689],[5.0520493,51.6734139],[5.0519721,51.6734484],[5.0518291,51.6736923],[5.0518186,51.6736899],[5.0517309,51.6738211],[5.0516781,51.6739003],[5.0499957,51.6740806],[5.050059,51.6733856],[5.0501966,51.6718777],[5.0493463,51.6718458],[5.04789,51.6720656],[5.0476509,51.6721349],[5.0476617,51.6719601],[5.0471716,51.671941],[5.0471464,51.6721892],[5.0469451,51.6721814],[5.0469438,51.6721937],[5.0466891,51.6722341],[5.0466489,51.6724556],[5.046641,51.672499],[5.0466365,51.6724987],[5.046634,51.6724985],[5.0464776,51.6724898],[5.0464766,51.672497],[5.0462429,51.6724925],[5.0456937,51.6724774],[5.0456822,51.6726094],[5.0454036,51.6725989],[5.0453986,51.6726492],[5.0453329,51.6726464],[5.0451041,51.6726887],[5.045104,51.6726895],[5.0447604,51.6727749],[5.044527,51.6728426],[5.0444146,51.6728753],[5.044383,51.6728841],[5.0442087,51.6729332],[5.0440772,51.6729702],[5.0438677,51.6730301],[5.0435006,51.6731336],[5.0433887,51.6741169],[5.0425212,51.6740808],[5.0426275,51.6730774],[5.0421929,51.6731904],[5.0414675,51.6733951],[5.0402975,51.6737251],[5.0405177,51.6715453],[5.0409664,51.6715629],[5.0410234,51.6709977],[5.0405748,51.6709802],[5.0407175,51.6695673],[5.0404938,51.6695585],[5.0405534,51.6689691],[5.0404304,51.6689417],[5.0405306,51.6680814],[5.0401029,51.6680622],[5.0400846,51.6682271],[5.0400644,51.6684102],[5.0400338,51.6686873],[5.0396269,51.6686699],[5.0396541,51.6684368],[5.0393932,51.6684257],[5.0394011,51.6683539],[5.039101,51.6683411],[5.0391204,51.6681617],[5.0388994,51.6681523],[5.0388829,51.6683097],[5.0388219,51.6688891],[5.0388012,51.6688793],[5.0386998,51.6688316],[5.0385984,51.6687839],[5.0385686,51.6687657],[5.0384839,51.6687789],[5.0381589,51.6685994],[5.038112,51.6685831],[5.0380933,51.6685783],[5.0380471,51.6690007],[5.0375414,51.6689863],[5.0375582,51.6688543],[5.0374237,51.6688499],[5.0372436,51.6688435],[5.0370929,51.6688388],[5.0369761,51.6688352],[5.0367622,51.6688286],[5.0367344,51.6690719],[5.0365034,51.6690617],[5.0364913,51.6691799],[5.0361923,51.6691668],[5.0362193,51.6689019],[5.0361337,51.6688985],[5.0360879,51.6693432],[5.0359871,51.6693278],[5.0357154,51.6693292],[5.0357345,51.6691178],[5.0357219,51.6691173],[5.0357434,51.6688786],[5.0356952,51.6688741],[5.0356011,51.6688675],[5.03553,51.6688626],[5.0355225,51.6688621],[5.0351552,51.6688304],[5.035144,51.6689321],[5.0351269,51.6690861],[5.0349934,51.6690818],[5.0349613,51.6690808],[5.0349078,51.6690791],[5.0347917,51.6690754],[5.0347688,51.669277],[5.034766,51.6693016],[5.0347623,51.6693338],[5.0347284,51.669334],[5.034729,51.6693335],[5.0347185,51.6693335],[5.0347249,51.6692769],[5.034733,51.6692054],[5.0342674,51.6691888],[5.034229,51.6695132],[5.0341645,51.6701503],[5.0338889,51.6701276],[5.0336547,51.6701065],[5.0336543,51.6701103],[5.0331245,51.6700859],[5.033122,51.6701086],[5.0324529,51.6701027],[5.0320471,51.6737141],[5.0318081,51.6760219],[5.0316869,51.6771676],[5.0316622,51.6774008],[5.0316433,51.6774879],[5.0314442,51.6793789],[5.0314391,51.6794249],[5.0329905,51.6796566],[5.0401124,51.6806636],[5.0398748,51.6808163],[5.039863,51.6808438],[5.0397148,51.6809411],[5.0397079,51.6809457],[5.039291,51.6812433],[5.0392838,51.6812485],[5.0387874,51.6816028],[5.038781,51.6816074],[5.0384955,51.681811],[5.0384132,51.6818693],[5.0378032,51.6823063],[5.0373924,51.6825987],[5.0370181,51.6828679],[5.0363014,51.6833796],[5.0359651,51.6836192],[5.0351125,51.6842303],[5.0345901,51.6846028],[5.0342473,51.6848465],[5.0338806,51.6851082],[5.0337924,51.6851691],[5.033686,51.6852467],[5.0335735,51.6853314],[5.0333251,51.685522],[5.0328896,51.6858602],[5.0324582,51.6861557],[5.0322839,51.6862752],[5.0317276,51.6866567],[5.0310099,51.6871461],[5.0308853,51.6872424],[5.030868,51.6872558],[5.0306643,51.687405],[5.0304382,51.6875536],[5.0302179,51.6876928],[5.0301584,51.6877133],[5.0301185,51.6877298],[5.0300828,51.6877643],[5.0300629,51.6878052],[5.030054,51.6878335],[5.0300369,51.6879877],[5.0300021,51.6882629],[5.029936,51.6889347],[5.0299164,51.6891254],[5.0298993,51.6893565],[5.0298915,51.689791],[5.0298668,51.6898993],[5.0298547,51.6899663],[5.0298441,51.690018],[5.0298424,51.6901059],[5.0298141,51.6902465],[5.02978,51.6906191],[5.0296116,51.692288],[5.0296076,51.6923275],[5.0296012,51.6923905],[5.0295902,51.6927592],[5.0293091,51.69542],[5.0292918,51.6955523],[5.0292911,51.69556],[5.029228,51.696226],[5.0290435,51.6981729],[5.0289673,51.6988359],[5.0289173,51.6994732],[5.0288727,51.7001909],[5.0288242,51.7008614],[5.0287939,51.7012399],[5.0287477,51.7015811],[5.0287162,51.7017276],[5.0286622,51.7019363],[5.0286498,51.7020765],[5.0285881,51.702979],[5.0284655,51.7038844],[5.0284471,51.7043573],[5.0284258,51.7048285],[5.028388,51.7052119],[5.0283425,51.7056731],[5.0283405,51.7059646],[5.0282589,51.7066365],[5.0282395,51.706818],[5.0281972,51.7072098],[5.0281389,51.7077687],[5.0281243,51.7078801],[5.0279477,51.7096161],[5.0279464,51.7096629],[5.0277957,51.7096704],[5.0277446,51.7101735],[5.0276543,51.7110613],[5.0274455,51.7110736],[5.0270894,51.7110996],[5.0264075,51.7111493],[5.0242565,51.7112946],[5.021247,51.7115271],[5.0197941,51.7116598],[5.0183267,51.7117942],[5.0162209,51.7120133],[5.0148228,51.7121678],[5.0124351,51.7124519],[5.0109986,51.7126225],[5.0107232,51.7126552],[5.0094524,51.7128194],[5.0092589,51.7128444],[5.0077364,51.7130547],[5.0060165,51.7133089],[5.0058645,51.7133355],[5.0057834,51.7133497],[5.0049034,51.7135057],[5.0035163,51.7137512],[5.0025285,51.7139236],[5.0014334,51.7141149],[5.0004509,51.7142865],[4.9969519,51.7149591],[4.9940799,51.7155798],[4.9911768,51.716254],[4.9899583,51.7165504],[4.9886369,51.7168714],[4.9866823,51.717346],[4.9863376,51.7174364],[4.9851708,51.7177367],[4.9841563,51.7179958],[4.9831044,51.7182661],[4.9821978,51.7185008],[4.9820065,51.718549],[4.9817109,51.7186237],[4.9794716,51.7191802],[4.9784183,51.7194103],[4.9749235,51.7201641],[4.9713376,51.7208551],[4.9699868,51.7210997],[4.9700167,51.7205046],[4.9700436,51.7200696],[4.9700699,51.7196094],[4.9700714,51.7195266],[4.9701299,51.7185703],[4.9701674,51.7178511],[4.9701835,51.717216],[4.9701846,51.7171698],[4.9701848,51.7171646],[4.9702034,51.7167895],[4.970216,51.7165599],[4.9702502,51.7159354],[4.9702506,51.7159283],[4.9702998,51.7151202],[4.9703003,51.715113],[4.9703572,51.7140588],[4.9703595,51.7140085],[4.9704007,51.7130764],[4.9704647,51.7118632],[4.970538,51.7105205],[4.9705983,51.7094326],[4.9705991,51.7094187],[4.9706,51.7093119],[4.9706015,51.7091348],[4.9706402,51.7083463],[4.9706499,51.7081128],[4.9706576,51.7079958],[4.9707365,51.7065931],[4.9707892,51.7056626],[4.9708249,51.7050322],[4.9708254,51.7050215],[4.9708436,51.7046513],[4.9708685,51.7042734],[4.9708852,51.7039567],[4.9709079,51.7035197],[4.9709304,51.7030901],[4.9709853,51.7020808],[4.9710071,51.7016658],[4.9710241,51.7012938],[4.9710573,51.7006937],[4.9710949,51.7000614],[4.9711329,51.6993553],[4.9711781,51.6985557],[4.9711884,51.6983941],[4.9712494,51.6973107],[4.9712646,51.697043],[4.9712996,51.6964034],[4.9713213,51.6960347],[4.9713508,51.6955356],[4.9713664,51.6952554],[4.9713861,51.6948785],[4.9713903,51.6947974],[4.97107,51.6947705],[4.9699245,51.6946839],[4.9688852,51.6945967],[4.9682284,51.6945215],[4.9677584,51.6944843],[4.9673851,51.6944548],[4.9662345,51.6943548],[4.966251,51.6940495],[4.9662553,51.6939807],[4.9662803,51.6935768],[4.9663375,51.6925774],[4.9663873,51.691763],[4.9664013,51.6915229],[4.9664462,51.690749],[4.9664471,51.6907166],[4.9664489,51.6906346],[4.9664559,51.6905818],[4.9664486,51.6905131],[4.9664316,51.6903536],[4.9664827,51.6900687],[4.9665095,51.6895444],[4.9665182,51.6893744],[4.9665484,51.6887852],[4.9665492,51.6886712],[4.9665507,51.688646],[4.9665526,51.6886154],[4.9665613,51.6884698],[4.9665747,51.6882756],[4.9665342,51.6882737],[4.9652019,51.6881735],[4.9643982,51.6881148]]]}}],"type":"FeatureCollection"}